STRONG GROUND MOTION RECORDS OF TURKIYE
PLACE                   : MUðLA GULLUK ITFAIYE
EARTHQUAKE DATE         : 2017/07/24 06:59:25 (GMT)
EPICENTER COORDINATES   : 36.94630N-27.58850E
EARTHQUAKE DEPTH (km)   : 10.69
EARTHQUAKE MAGNITUDE    : 3.0 ML
STATION ID              : 4817
STATION COORDINATES     : 37.24010N-27.60310E
STATION ALTITUDE (m)    : 10
RECORDER TYPE           : GeoSig gmsplus
RECORDER SERIAL NO      : 53975/101911
RECORD TIME             : 24/07/2017 06:59:22.000000 (GMT)
NUMBER OF DATA          : 5998
SAMPLING INTERVAL (sec) : 0.01
RAW PGA VALUES (gal)    : (N-S) 0.581345 (E-W) 0.530409 (U-D) 0.343298
Copyright EARTHQUAKE DEPARTMENT
DISASTER AND EMERGENCY MANAGEMENT PRESIDENCY
       N-S          E-W          U-D
[...]
    0.074325     -0.019231     0.070427
    0.059512     -0.011435     0.056393
    0.015593     -0.015333    -0.015073
   -0.010135      0.018191    -0.029366
   -0.014553      0.002859    -0.004158
   -0.029366     -0.002079     0.100313
   -0.052755      0.036123    -0.043140
   -0.030146      0.029106    -0.142413
    0.003898      0.000520    -0.018711
    0.022609     -0.007536     0.001819
   -0.020530     -0.067828     0.036903
   -0.019751     -0.071986     0.032745
    0.056653      0.009356     0.080822
    0.060291      0.035083     0.086019
    0.051975      0.069907    -0.088358
    0.029106      0.021830    -0.148650
    0.013773     -0.051196    -0.003378
    0.000000     -0.014813     0.147610
   -0.069647      0.014553     0.045998
   -0.075364      0.040021    -0.149169
   -0.054834      0.009356    -0.162943
   -0.054314     -0.024948     0.015852
   -0.079262     -0.013514     0.086279
   -0.074585     -0.038462     0.022869
    0.021050     -0.014813     0.045998
    0.087319      0.041840    -0.004158
    0.081861      0.049377     0.005198
    0.050676      0.017412     0.086539
    0.050936     -0.005977     0.005977
    0.028327     -0.005717    -0.086279
   -0.019491     -0.012474    -0.116425
   -0.018711     -0.022349    -0.047557
   -0.015852     -0.024688     0.107589
   -0.023129     -0.034564     0.075624
   -0.039501     -0.084720    -0.038722
    0.002339     -0.067308     0.028846
    0.069387      0.069387     0.053015
    0.038722      0.148910    -0.019231
   -0.011435      0.095375    -0.063150
   -0.007536     -0.005198    -0.015073
    0.010395     -0.044439     0.086279
   -0.011435     -0.004938    -0.041061
   -0.050936      0.005198    -0.125521
   -0.030146     -0.022090     0.020011
    0.008056      0.003119     0.025468
   -0.019751      0.006497    -0.024169
   -0.013514     -0.049377    -0.010135
    0.069647     -0.069647    -0.003898
    0.072506     -0.046258    -0.013254
    0.008836      0.012474    -0.030665
   -0.019231      0.037682     0.010915
   -0.003378      0.038462     0.029106
    0.010135      0.057693     0.042100
   -0.032485      0.014553     0.036643
   -0.062890     -0.022349    -0.002599
   -0.050416     -0.048857     0.041061
   -0.018971     -0.024169     0.041061
    0.008056      0.036643    -0.018451
    0.014813     -0.003119    -0.015073
    0.038202      0.021050    -0.030146
    0.045478      0.063150    -0.056133
    0.022090      0.012474    -0.013254
    0.011175     -0.011435    -0.018451
   -0.012474     -0.045998    -0.016112
   -0.060032     -0.089398     0.022609
   -0.075624     -0.050936    -0.083161
   -0.051196      0.000000    -0.127859
   -0.008836     -0.006237     0.030925
    0.006237     -0.013254     0.129679
   -0.003119     -0.018711     0.088618
    0.057693      0.027287    -0.030146
    0.119803      0.115126    -0.091996
    0.080822      0.101352    -0.003378
   -0.000260      0.040541     0.048077
   -0.037682      0.007277     0.038982
   -0.004678     -0.021570     0.022349
    0.020530     -0.046778     0.034564
   -0.002859     -0.028327     0.066009
   -0.021830      0.018451    -0.018451
   -0.040281     -0.008316    -0.048337
   -0.055354     -0.043919    -0.010655
   -0.027807     -0.062890    -0.025988
   -0.005198     -0.045219     0.013773
   -0.023389      0.036123    -0.005977
   -0.022609      0.026767    -0.042880
   -0.015852     -0.028067    -0.004158
   -0.026248     -0.040021    -0.042100
   -0.002859     -0.025208    -0.016112
    0.047557      0.032745     0.046258
    0.071206      0.070946     0.032485
    0.049377      0.048337     0.000260
    0.016372      0.034824    -0.073025
   -0.011954      0.018711    -0.040021
   -0.035603     -0.001040     0.006237
   -0.034044      0.030925     0.035603
   -0.013773      0.044439     0.089398
    0.039761      0.032745     0.021830
    0.066009     -0.038982    -0.024428
    0.021310     -0.113306    -0.036383
    0.006237     -0.075624    -0.032225
   -0.003378     -0.035083     0.027807
   -0.027547     -0.011435     0.023649
   -0.024169      0.022869    -0.051975
   -0.039501      0.017932    -0.074845
   -0.060811     -0.003378    -0.014033
   -0.052495      0.010395     0.008316
   -0.035863      0.036903    -0.060032
   -0.030146      0.057173    -0.052235
   -0.000520      0.040541     0.140074
    0.027027      0.005717     0.162423
    0.008316      0.008836    -0.050676
    0.011694     -0.013254    -0.112787
    0.043399     -0.076404     0.023909
    0.036903     -0.056133     0.114086
    0.006497      0.049377     0.011175
    0.024169      0.051716    -0.066009
    0.068608     -0.008056    -0.081861
    0.042620     -0.011694    -0.068088
   -0.037942      0.013514     0.027027
   -0.053015      0.041320     0.046258
    0.008576      0.008316     0.058472
    0.052495     -0.038982     0.066529
    0.032485     -0.081082     0.011694
   -0.028327     -0.098753    -0.054054
   -0.047557     -0.016632    -0.110708
   -0.031185      0.017932    -0.038722
   -0.013514     -0.014813     0.080042
    0.009615      0.030406     0.063930
    0.022609      0.098493    -0.024688
    0.045478      0.107589    -0.064969
    0.030146      0.033264    -0.017932
   -0.037422     -0.013514    -0.003638
   -0.071466      0.021310    -0.084200
   -0.036123     -0.029626    -0.012734
    0.014293     -0.096674     0.147610
    0.006237     -0.100053     0.096154
   -0.017672     -0.066269    -0.069647
    0.003898      0.004418    -0.089917
    0.031445      0.009356     0.022609
    0.041061      0.060551     0.033524
    0.044699      0.132277    -0.021310
    0.056913      0.056653    -0.016892
    0.063410     -0.031965    -0.010135
    0.003638     -0.037422    -0.063670
   -0.062890     -0.005717    -0.087059
   -0.076144     -0.033784    -0.014553
   -0.065489     -0.064449     0.054574
   -0.041840     -0.028067     0.082901
   -0.024169     -0.005977     0.034564
    0.014553      0.008316     0.005198
    0.052495      0.028327     0.048077
    0.028067      0.057173     0.035343
   -0.038202      0.079003    -0.020011
   -0.044179      0.099013    -0.032745
    0.007277      0.070167    -0.025208
   -0.007796     -0.022090    -0.029626
   -0.069647     -0.099013    -0.007017
   -0.075364     -0.153847     0.029366
   -0.020790     -0.116945     0.028846
    0.028327     -0.040281    -0.088878
    0.033264      0.010915    -0.153068
    0.020011      0.071726     0.003119
    0.044699      0.090437     0.132797
    0.061331      0.059252     0.118764
    0.073545      0.027807     0.058472
    0.124481      0.054574     0.016892
    0.110188      0.075624    -0.016372
    0.018711      0.016892    -0.101872
   -0.054834     -0.077183    -0.093036
   -0.068348     -0.120323     0.033004
   -0.061071     -0.077443     0.075104
   -0.078743     -0.058992     0.057953
   -0.103431     -0.040801    -0.023649
   -0.091737      0.057173    -0.105250
   -0.067568      0.121103    -0.058992
   -0.037162      0.119803     0.015333
    0.014293      0.040281     0.053795
    0.055614     -0.063150     0.005457
    0.110967     -0.074585    -0.123182
    0.115645     -0.095115    -0.146311
    0.073025     -0.080822    -0.040801
    0.012474     -0.019751     0.042360
   -0.077703     -0.051456     0.123182
   -0.058472     -0.054574     0.147610
    0.008576      0.018191     0.081861
   -0.000780      0.101612     0.007277
   -0.059512      0.130978    -0.045219
   -0.120843      0.037422     0.011175
   -0.064969     -0.006757     0.071726
    0.036123      0.009875     0.081601
    0.034304     -0.062890    -0.000780
    0.010915     -0.126040    -0.153847
   -0.000780     -0.131238    -0.118764
   -0.016372     -0.114346    -0.008836
   -0.020270     -0.064969    -0.023909
   -0.005977     -0.003378    -0.068608
    0.062630      0.073805     0.005457
    0.095115      0.100832     0.147610
    0.056133      0.094855     0.120323
    0.041840      0.164762    -0.064969
    0.071206      0.205823    -0.075364
    0.104990      0.171779     0.102911
    0.054834      0.125780     0.101352
   -0.010135      0.032485    -0.064449
   -0.003119     -0.073285    -0.131238
   -0.031445     -0.142153    -0.026767
   -0.106550     -0.183733     0.073285
   -0.148910     -0.173338     0.034304
   -0.081082     -0.132797    -0.081082
    0.045478     -0.069127    -0.167881
    0.067048      0.045998    -0.044179
    0.020011      0.186072     0.136955
    0.033784      0.227652     0.116685
    0.079782      0.106030    -0.017412
    0.085759      0.017412    -0.054314
    0.059252      0.042880     0.017932
   -0.003378      0.073025     0.022090
   -0.072506      0.015073    -0.013773
   -0.084980     -0.125780    -0.081861
   -0.074585     -0.220376    -0.122142
   -0.057433     -0.173858    -0.028586
   -0.048077     -0.053535     0.081342
   -0.063670     -0.050156     0.104471
   -0.054054     -0.079262    -0.027027
    0.000780     -0.037422    -0.083940
    0.043659      0.017932     0.080822
    0.012214      0.099013     0.150729
   -0.041840      0.067568     0.007277
   -0.058732     -0.077183    -0.147350
   -0.034824     -0.127340    -0.088878
   -0.023909     -0.030665     0.109668
   -0.054574      0.105250     0.114346
   -0.048597      0.110448    -0.059252
    0.009356      0.028586    -0.112787
    0.058732      0.030406     0.014033
    0.026767      0.078223     0.098493
   -0.040021      0.062111     0.015333
   -0.022869      0.006757    -0.034044
    0.093036      0.038722     0.053535
    0.224274      0.127080     0.102132
    0.246623      0.131238     0.022349
    0.202184      0.048597    -0.070946
    0.163203     -0.079003    -0.049637
    0.060032     -0.148650     0.069647
   -0.095895     -0.072506    -0.000260
   -0.181134      0.078483    -0.185812
   -0.152028      0.121103    -0.108629
   -0.080822      0.006757     0.060032
   -0.049637     -0.093556     0.164242
   -0.039761     -0.129679     0.091217
    0.003378     -0.133317    -0.097454
    0.024688     -0.149689    -0.145791
    0.016892     -0.176716    -0.185292
   -0.018451     -0.100832    -0.108629
   -0.089398      0.012734     0.121622
   -0.094075      0.109148     0.220895
   -0.029886      0.189190     0.099273
    0.040281      0.185812    -0.069907
    0.060032      0.105510    -0.065749
    0.005457      0.028067    -0.014033
   -0.058472      0.099013     0.003638
   -0.054054      0.195687    -0.016632
    0.002339      0.093816    -0.078483
    0.002599     -0.141893    -0.004158
   -0.030665     -0.298079     0.078223
   -0.033264     -0.208161     0.032745
   -0.045998     -0.085240     0.012734
   -0.039761     -0.145791     0.040281
    0.077703     -0.235708     0.034824
    0.266894     -0.226353    -0.011954
    0.353173     -0.095635    -0.107849
    0.282486      0.111487    -0.156446
    0.097194      0.292362    -0.035603
   -0.104730      0.438932     0.083421
   -0.195947      0.530409     0.100053
   -0.269492      0.479993     0.108888
   -0.382019      0.246104     0.112007
   -0.465440     -0.164762     0.089398
   -0.442051     -0.495326     0.064190
   -0.214658     -0.508319    -0.011954
    0.105250     -0.355512    -0.149689
    0.331343     -0.178276    -0.169960
    0.422820     -0.041840    -0.051975
    0.424899      0.064969     0.009096
    0.353433      0.262476    -0.083161
    0.222455      0.447508    -0.102651
    0.096674      0.425679     0.067568
   -0.012734      0.159564     0.131238
   -0.119024     -0.194388    -0.008316
   -0.146571     -0.449847    -0.156966
   -0.075624     -0.499484    -0.100053
   -0.008056     -0.333942     0.100832
    0.025988     -0.135916     0.180874
    0.029886     -0.023909     0.128639
    0.017932      0.034044     0.071726
   -0.034824      0.162423     0.033264
   -0.153327      0.314451    -0.004418
   -0.254939      0.292622    -0.081342
   -0.269233      0.185292    -0.151508
   -0.169180      0.010655    -0.092516
   -0.036903     -0.171779    -0.019231
    0.068348     -0.239347    -0.050156
    0.146311     -0.249482    -0.131238
    0.142413     -0.104730    -0.114086
    0.018451      0.132797     0.023129
   -0.121622      0.337320     0.113306
   -0.084720      0.489348     0.088098
    0.072246      0.453745    -0.026507
    0.188151      0.267673     0.028067
    0.228692      0.074845     0.191789
    0.206082     -0.131758     0.147870
    0.188151     -0.339399     0.014553
    0.179575     -0.423340    -0.038722
    0.081601     -0.380460    -0.002859
   -0.154627     -0.284046     0.022349
   -0.403329     -0.214658     0.026248
   -0.529629     -0.221415     0.028067
   -0.525471     -0.189190    -0.011694
   -0.386697     -0.058472    -0.063930
   -0.094855      0.173338    -0.124221
    0.215958      0.405148    -0.200105
    0.367466      0.400211    -0.188411
    0.467779      0.262476     0.005717
    0.579006      0.226613     0.175157
    0.525471      0.230771     0.178276
    0.305096      0.199586     0.070167
    0.007277      0.038202    -0.025468
   -0.348235     -0.272351    -0.010135
   -0.581345     -0.456604    -0.066009
   -0.508319     -0.391635    -0.165802
   -0.244544     -0.229471    -0.055094
   -0.029626     -0.136435     0.109928
    0.039241     -0.069127     0.065489
    0.041320      0.052235    -0.053795
    0.054314      0.133057    -0.061331
    0.092256      0.244544    -0.008056
    0.137215      0.345636     0.041580
    0.146571      0.216218     0.054054
    0.132277     -0.017672    -0.024169
    0.143972     -0.099273    -0.073545
    0.167101     -0.034044     0.014033
    0.111227     -0.029626     0.108369
   -0.012474     -0.166321     0.095635
   -0.065749     -0.224014    -0.001040
   -0.039241     -0.097974    -0.032745
   -0.088098      0.076664     0.030146
   -0.215178      0.214139     0.000520
   -0.253900      0.226353    -0.093556
   -0.171779      0.086279    -0.077443
   -0.065749     -0.075364    -0.015593
   -0.013254     -0.094075     0.023129
    0.046518      0.015593     0.010915
    0.128899      0.054574    -0.067828
    0.117984     -0.037162    -0.047038
    0.096674     -0.051456     0.016892
    0.124221      0.067828     0.034824
    0.114086      0.110448     0.061071
    0.083940      0.055094     0.045998
    0.024428     -0.032485     0.043399
   -0.049377     -0.092516     0.003638
   -0.104990     -0.139034    -0.087838
   -0.182434     -0.222455    -0.112527
   -0.216218     -0.212579    -0.044699
   -0.148910     -0.118764     0.098493
   -0.042620     -0.031705     0.107069
    0.043659      0.042100    -0.026248
    0.108629      0.158785    -0.085240
    0.160864      0.290542    -0.081082
    0.146831      0.254160    -0.074065
    0.067828      0.081601     0.007277
    0.005198     -0.042360     0.176976
   -0.021570     -0.099793     0.290023
   -0.043659     -0.129679     0.204783
   -0.056913     -0.122142    -0.107329
   -0.059772     -0.132797    -0.288463
   -0.121103     -0.115126    -0.132537
   -0.182434     -0.041840     0.070427
   -0.130978      0.042880     0.124481
    0.003898      0.226873     0.011175
    0.134616      0.386957    -0.087059
    0.169180      0.331863    -0.071986
    0.134356      0.062630    -0.003119
    0.127600     -0.185812     0.068867
    0.155406     -0.170999     0.081601
    0.139294     -0.086019    -0.000520
    0.045219     -0.046778    -0.174637
   -0.051456     -0.040021    -0.214918
   -0.119024     -0.097974    -0.039501
   -0.149689     -0.083421     0.169440
   -0.082121     -0.012214     0.202444
    0.023649      0.030406     0.043399
    0.065749      0.019491    -0.063670
    0.048077     -0.033524    -0.081601
   -0.011175     -0.078483    -0.050416
   -0.060032     -0.111227     0.040281
   -0.074845     -0.082121     0.074325
   -0.075364     -0.048337    -0.002859
   -0.046518      0.000000    -0.106809
    0.011694      0.103431    -0.183993
    0.047298      0.134356    -0.168660
    0.011435      0.130458    -0.009096
   -0.044439      0.147350     0.199586
   -0.028846      0.137215     0.310293
    0.041580      0.093556     0.156446
    0.048077     -0.043140    -0.102911
    0.004678     -0.178795    -0.175937
    0.007277     -0.145271    -0.089658
   -0.003638     -0.072506     0.055874
   -0.060291     -0.017672     0.125521
   -0.075624      0.024428     0.085500
   -0.010135     -0.011694    -0.000780
    0.071206      0.003898    -0.063930
    0.071726      0.028846    -0.016892
   -0.000520      0.001559     0.044959
   -0.050676     -0.018451     0.033264
   -0.025468     -0.030146    -0.011694
    0.039761      0.047817    -0.055354
    0.043399      0.130718    -0.060551
   -0.002339      0.078743    -0.028846
    0.013254      0.015593    -0.023649
    0.042360      0.050156    -0.029886
    0.002599      0.032485     0.009615
   -0.084200     -0.098753     0.036903
   -0.123961     -0.174637     0.008836
   -0.055874     -0.100572    -0.041061
    0.004418      0.022349    -0.050416
    0.005198      0.011954    -0.015852
    0.039241     -0.077183     0.015073
    0.139294     -0.044699     0.066009
    0.212839      0.034824     0.065489
    0.180355      0.017412    -0.023129
    0.092776      0.025728    -0.086279
    0.000520      0.039501    -0.056653
   -0.060291     -0.012474     0.008836
   -0.070946      0.020530     0.001559
   -0.095375      0.066269    -0.036903
   -0.125001      0.040021    -0.003638
   -0.157745      0.031705     0.080302
   -0.227392      0.006237     0.081861
   -0.219856     -0.046518     0.001819
   -0.113826     -0.038202    -0.016892
   -0.008056      0.014033     0.008056
    0.082641      0.102392    -0.081342
    0.124741      0.106290    -0.166841
    0.136435     -0.044699    -0.039761
    0.154627     -0.097194     0.100313
    0.104211     -0.095895     0.111747
    0.023389     -0.101092     0.045738
    0.014293     -0.037682    -0.042360
    0.025728      0.011954    -0.040021
    0.022349      0.024169    -0.000780
    0.013514     -0.045219    -0.002859
    0.004158     -0.028846    -0.007536
    0.010655      0.046778     0.022869
    0.013514      0.039241     0.072766
    0.030406      0.088878     0.050936
    0.050416      0.109668    -0.007017
    0.009356      0.058732    -0.010915
   -0.068088     -0.035343    -0.030925
   -0.120063     -0.153327    -0.076664
   -0.121622     -0.182694    -0.071726
   -0.090177     -0.139814    -0.014813
   -0.035863     -0.035863     0.012214
    0.037942      0.042880    -0.033264
    0.089138      0.077183    -0.044179
    0.106550      0.148910     0.007536
    0.072766      0.128119     0.043919
    0.021570      0.020790     0.038462
    0.017412     -0.045219     0.029106
