STRONG GROUND MOTION RECORDS OF TURKIYE
PLACE                   : MUðLA MARMARIS METEOROLOJI MUDURLUGU
EARTHQUAKE DATE         : 2017/07/24 06:59:25 (GMT)
EPICENTER COORDINATES   : 36.94630N-27.58850E
EARTHQUAKE DEPTH (km)   : 10.69
EARTHQUAKE MAGNITUDE    : 3.0 ML
STATION ID              : 4810
STATION COORDINATES     : 36.83942N-28.24483E
STATION ALTITUDE (m)    : 19
RECORDER TYPE           : Guralp cmg5td
RECORDER SERIAL NO      : T5J43/A1046
RECORD TIME             : 24/07/2017 06:59:30.000000 (GMT)
NUMBER OF DATA          : 3024
SAMPLING INTERVAL (sec) : 0.01
RAW PGA VALUES (gal)    : (N-S) 0.269719 (E-W) 0.245677 (U-D) 0.156668
Copyright EARTHQUAKE DEPARTMENT
DISASTER AND EMERGENCY MANAGEMENT PRESIDENCY
       N-S          E-W          U-D
[...]
   -0.042943     -0.028565     0.026942
   -0.054320     -0.049248     0.035753
   -0.035018     -0.053365     0.022941
    0.016358     -0.064640    -0.021320
    0.051862     -0.032006    -0.070541
    0.068002     -0.003253    -0.096284
    0.068279      0.028162    -0.084101
    0.045994      0.051152    -0.033331
    0.009495      0.042472     0.044806
   -0.028470      0.018795     0.089005
   -0.057944     -0.044774     0.076797
   -0.008179     -0.061434     0.041845
   -0.002325     -0.099749     0.003171
   -0.010811     -0.103975    -0.048355
   -0.066412     -0.061052    -0.082284
   -0.069189      0.057532    -0.087147
   -0.038450      0.145736    -0.043726
    0.004326      0.121346     0.003397
    0.028490      0.050291     0.040903
    0.047306     -0.029191     0.041688
    0.069978     -0.034129     0.027850
    0.076916      0.006691     0.004895
    0.084198      0.051234     0.008192
    0.032765      0.090875     0.019707
   -0.003823      0.077879     0.018576
   -0.018680      0.024413     0.021393
   -0.007323     -0.082217     0.008423
   -0.028076     -0.148037     0.008521
   -0.046037     -0.131655    -0.006793
   -0.067813     -0.037608    -0.021028
   -0.040312      0.072218    -0.040336
    0.013745      0.118457    -0.039289
    0.051947      0.114864    -0.050855
    0.039577      0.032634    -0.031440
    0.002084     -0.045550    -0.007102
   -0.047552     -0.113003     0.004976
   -0.023307     -0.087478     0.021311
    0.018796     -0.023197     0.057200
    0.040212      0.052389     0.070649
    0.010681      0.117784     0.067026
   -0.031748      0.122143     0.048434
   -0.021165      0.077498     0.015674
   -0.020195     -0.023506    -0.045154
    0.007265     -0.099447    -0.100764
    0.018859     -0.122556    -0.109908
    0.034829     -0.071547    -0.078251
    0.012401      0.008478     0.002972
   -0.035940      0.049745     0.065864
   -0.102726      0.041040     0.099084
   -0.107024      0.005575     0.066286
   -0.057355      0.016572     0.021237
   -0.019235      0.018056    -0.039886
    0.014366     -0.006973    -0.049416
   -0.000169     -0.069445    -0.038559
   -0.014303     -0.099783     0.005253
    0.018441     -0.021443     0.036689
    0.049029      0.040450     0.029927
    0.073644      0.091858     0.010753
    0.098153      0.076816    -0.001345
    0.103832      0.035037    -0.003759
    0.082667     -0.025619     0.014388
    0.018336     -0.062691     0.030985
   -0.069823     -0.067561     0.001789
   -0.114849     -0.091205    -0.043364
   -0.085922     -0.096062    -0.079756
   -0.055746     -0.117029    -0.059053
    0.000288     -0.059514    -0.011224
    0.048079      0.039916     0.033436
    0.078715      0.128818     0.038620
    0.045870      0.156946     0.041926
   -0.004839      0.130115     0.010299
   -0.065268      0.100407    -0.014343
   -0.103820      0.046957    -0.032400
   -0.072647      0.007415    -0.016921
   -0.033308     -0.037636    -0.008413
    0.022682     -0.056324    -0.007593
    0.066327     -0.040123    -0.007553
    0.146174     -0.026293     0.000211
    0.209300      0.000237     0.015827
    0.211171      0.010727     0.005197
    0.137844      0.014886    -0.000453
    0.005697     -0.038603    -0.015206
   -0.117023     -0.076073    -0.009035
   -0.181162     -0.086910    -0.005051
   -0.199182     -0.096353     0.014324
   -0.163836     -0.076820     0.010901
   -0.088372     -0.046230     0.002597
    0.029166      0.041022    -0.003524
    0.105435      0.122069    -0.002363
    0.105702      0.174033    -0.017376
    0.031949      0.149840    -0.034509
   -0.056104      0.080168    -0.036775
   -0.104215     -0.011841    -0.017956
   -0.060769     -0.067732     0.002502
    0.030773     -0.041047     0.029842
    0.092213      0.023687     0.051951
    0.128056      0.050634     0.055017
    0.098798     -0.005601     0.045625
    0.042948     -0.097038     0.043567
   -0.041076     -0.163496     0.050208
   -0.101856     -0.155191     0.017732
   -0.152889     -0.044326    -0.019754
   -0.173920      0.054308    -0.077104
   -0.146172      0.105041    -0.092668
   -0.084957      0.098603    -0.090110
   -0.000084      0.054389    -0.050654
    0.070191      0.030863    -0.010920
    0.094831      0.017829     0.038899
    0.075643      0.029538     0.080455
    0.068105      0.020845     0.105051
    0.075565      0.048676     0.099823
    0.058876      0.013990     0.070665
    0.054067     -0.072422     0.019463
    0.036386     -0.164795    -0.060445
    0.029307     -0.140752    -0.104604
    0.022197      0.010911    -0.101202
    0.001296      0.124764    -0.060298
   -0.001491      0.148031    -0.019063
    0.014867      0.082858     0.011851
    0.036807      0.023348     0.011603
   -0.011528     -0.016186     0.016000
   -0.078016     -0.018526    -0.002743
   -0.126127     -0.026663    -0.025756
   -0.117339     -0.072908    -0.036176
   -0.058922     -0.107859    -0.007844
    0.013523     -0.098358     0.020434
    0.083123     -0.018968     0.048498
    0.127426      0.072372     0.038878
    0.155368      0.102947     0.028503
    0.130356      0.033723     0.008793
    0.087966     -0.071309    -0.006569
    0.010447     -0.063112    -0.008446
   -0.057375      0.025564     0.012022
   -0.092626      0.119285     0.045143
   -0.114365      0.093100     0.027493
   -0.113927      0.007484     0.002545
   -0.118480     -0.038052    -0.031495
   -0.100231     -0.055548    -0.054503
   -0.063182     -0.054958    -0.079731
   -0.002686     -0.041606    -0.065221
    0.038146      0.015082    -0.016942
    0.052840      0.039138     0.027044
    0.073122      0.053059     0.036735
    0.039801      0.009935     0.018086
    0.021088     -0.048932     0.004314
    0.023726     -0.083110     0.010190
    0.040004     -0.114225     0.039802
    0.048605     -0.105369     0.104119
    0.003687     -0.071411     0.110262
   -0.038376     -0.003404     0.046211
   -0.068237      0.042589    -0.025987
   -0.030057      0.070317    -0.088258
    0.019140      0.091893    -0.124250
    0.077183      0.137226    -0.143180
    0.133449      0.195620    -0.123298
    0.140559      0.160890    -0.060202
    0.046428      0.037164     0.031594
   -0.057241     -0.097449     0.102526
   -0.094560     -0.151512     0.145565
   -0.079096     -0.107565     0.150011
   -0.035592     -0.031112     0.114534
   -0.026726      0.009067     0.034987
   -0.052620     -0.034071    -0.047380
   -0.078429     -0.056876    -0.088970
   -0.101821     -0.059147    -0.123926
   -0.066045     -0.022643    -0.122019
   -0.000597      0.011475    -0.104891
    0.064160      0.035879    -0.053579
    0.098072      0.068045     0.017380
    0.112927      0.083971     0.081060
    0.092202      0.068915     0.108599
    0.013082     -0.010211     0.091191
   -0.063425     -0.062502     0.036683
   -0.108435     -0.057461    -0.014709
   -0.047503      0.019250    -0.037028
    0.018880      0.078790    -0.034014
    0.079879      0.061376    -0.034781
    0.058764     -0.039367    -0.050787
    0.005385     -0.163336    -0.056337
   -0.000124     -0.178280    -0.043714
    0.052277     -0.080506    -0.007091
    0.114670      0.053550     0.034596
    0.126741      0.148106     0.067008
    0.058850      0.132775     0.063963
   -0.017342      0.070368     0.074865
   -0.081550     -0.030420     0.073930
   -0.105034     -0.063139     0.072654
   -0.104519     -0.033890     0.052242
   -0.098867      0.019378     0.026697
   -0.074346      0.056485    -0.027107
   -0.042344      0.064507    -0.067563
   -0.022594      0.073101    -0.107106
    0.008233      0.049777    -0.113182
    0.058445      0.037990    -0.107032
    0.087158     -0.021934    -0.099081
    0.096940     -0.053566    -0.056103
    0.033765     -0.063832     0.002185
   -0.054798     -0.054691     0.070887
   -0.164939     -0.059971     0.116600
   -0.211186     -0.071152     0.119328
   -0.185470     -0.050032     0.082767
   -0.051843     -0.037391     0.041915
    0.112423     -0.036440    -0.003780
    0.214565     -0.061410    -0.023141
    0.235118     -0.051733    -0.043511
    0.165416     -0.011086    -0.044410
    0.087501      0.050178    -0.043755
    0.021708      0.084203    -0.018913
   -0.035976      0.048436     0.005087
   -0.077056      0.003710     0.045531
   -0.114477     -0.038444     0.047196
   -0.104933      0.004735     0.039410
   -0.046962      0.106104     0.015893
    0.023189      0.182338    -0.011627
    0.056159      0.181809    -0.035130
    0.058778      0.086284    -0.058697
    0.037165     -0.040849    -0.063379
   -0.001836     -0.143030    -0.073537
   -0.042209     -0.129082    -0.058900
   -0.076679     -0.059892    -0.023628
   -0.075480      0.005868     0.045397
   -0.046456      0.010489     0.073598
    0.018576     -0.038586     0.069721
    0.099446     -0.048099     0.048639
    0.155238     -0.051666     0.037227
    0.139549     -0.024269     0.012593
    0.036138      0.009495    -0.039478
   -0.064093      0.051049    -0.095181
   -0.127067      0.063417    -0.101747
   -0.156372      0.020324    -0.079789
   -0.143419     -0.037604    -0.031465
   -0.067286     -0.095642     0.028713
    0.043077     -0.091742     0.078591
    0.113838     -0.021848     0.123015
    0.136721      0.089679     0.136358
    0.109243      0.152718     0.102590
    0.079588      0.101478     0.042740
    0.030946     -0.016128    -0.000014
   -0.005315     -0.108010    -0.044210
   -0.026283     -0.122026    -0.071722
   -0.001046     -0.073548    -0.096913
    0.035568      0.027900    -0.086653
    0.055729      0.128280    -0.070156
    0.020561      0.186598    -0.039895
   -0.044608      0.207434    -0.005282
   -0.114901      0.153504     0.017653
   -0.141155      0.076251     0.016462
   -0.115938     -0.046554     0.003416
   -0.061716     -0.138530     0.001321
   -0.027110     -0.180854     0.017133
   -0.018853     -0.150254     0.052033
   -0.017548     -0.111774     0.058055
   -0.023373     -0.123070     0.042742
    0.005455     -0.138071     0.001499
    0.042116     -0.137730    -0.032521
    0.103545     -0.072123    -0.052062
    0.129052     -0.005885    -0.047786
    0.108460      0.057627    -0.039764
    0.012150      0.100445    -0.022991
   -0.057307      0.147819    -0.010293
   -0.076614      0.193913     0.022587
   -0.041393      0.225636     0.053444
    0.012480      0.191963     0.077040
    0.047859      0.054102     0.068564
    0.058688     -0.101770     0.049515
    0.053510     -0.167558     0.000971
    0.079845     -0.121043    -0.041363
    0.061809     -0.042738    -0.070717
    0.007149     -0.027469    -0.088543
   -0.050177     -0.048267    -0.062769
   -0.047350     -0.119007    -0.020181
    0.007586     -0.149641     0.031594
    0.071067     -0.115897     0.047709
    0.069490     -0.001382     0.047766
    0.011836      0.147856     0.021217
   -0.059376      0.239612     0.017712
   -0.111765      0.245677     0.023359
   -0.137036      0.107860     0.042415
   -0.139608     -0.062070     0.031311
   -0.103184     -0.191348     0.007594
   -0.032840     -0.163333    -0.035665
    0.071033     -0.016439    -0.068611
    0.136551      0.147156    -0.086334
    0.142642      0.217580    -0.064217
    0.067650      0.132627    -0.030894
    0.002754      0.001115     0.015982
   -0.032335     -0.111325     0.030075
   -0.043633     -0.157698     0.016643
   -0.061764     -0.163405     0.022312
   -0.034956     -0.117500     0.018762
   -0.056979     -0.019490     0.040285
   -0.088827      0.041485     0.055023
   -0.081129      0.051817     0.053499
   -0.043075      0.021456     0.024775
    0.024168     -0.007466     0.013266
    0.025685     -0.030068    -0.035568
    0.015256     -0.024328    -0.061685
    0.001552     -0.003437    -0.067738
    0.050848      0.044253    -0.053719
    0.094944      0.129213    -0.015045
    0.113935      0.164453     0.023391
    0.095319      0.139301     0.026089
    0.071724      0.015256    -0.009385
    0.076730     -0.117731    -0.031971
    0.086009     -0.206294    -0.027422
    0.070037     -0.196151     0.010159
    0.000759     -0.094238     0.055465
   -0.108208      0.010943     0.087980
   -0.161112      0.115734     0.087677
   -0.163473      0.148310     0.059677
   -0.096941      0.134857     0.006776
   -0.013963      0.063249    -0.052076
    0.059485      0.002562    -0.109546
    0.078650     -0.019467    -0.117357
    0.071440     -0.016334    -0.067728
    0.048286      0.001871     0.013906
    0.012919     -0.003370     0.060400
   -0.004125     -0.004226     0.050708
   -0.010954     -0.046711     0.018619
   -0.013524     -0.093669     0.004104
   -0.006930     -0.072888     0.018049
    0.030906     -0.017921     0.022616
    0.062177      0.029703     0.020945
    0.071026      0.031697     0.001530
    0.028098      0.033893    -0.002347
   -0.075814      0.013432    -0.017387
   -0.199664     -0.046643    -0.021110
   -0.269719     -0.105676    -0.033460
   -0.250800     -0.115693    -0.040015
   -0.147503     -0.052084    -0.033883
   -0.015230      0.026025    -0.003275
    0.126957      0.099253     0.034725
    0.196689      0.122790     0.045170
    0.257700      0.153258     0.035438
    0.235343      0.100578     0.003212
    0.133992      0.014539    -0.023251
   -0.009273     -0.060245    -0.046845
   -0.092939     -0.103995    -0.045835
   -0.073590     -0.099367    -0.032586
   -0.000057     -0.061303    -0.002056
    0.059465      0.001579     0.010016
    0.072365      0.019387     0.022372
    0.058416      0.004836     0.026362
    0.036421     -0.047415     0.042511
    0.018660     -0.080010     0.042379
   -0.014223     -0.045086     0.042357
   -0.064376      0.031087     0.026513
   -0.084304      0.119378     0.025768
   -0.064684      0.153414     0.000111
   -0.055450      0.108752    -0.029007
   -0.059442      0.031164    -0.051343
   -0.068525     -0.046068    -0.073661
   -0.057743     -0.052714    -0.081541
   -0.027555     -0.047390    -0.068658
    0.008027      0.005912    -0.013307
   -0.007320      0.032202     0.035960
   -0.026505      0.028984     0.072718
   -0.042948     -0.003864     0.058091
   -0.013549     -0.038886     0.041714
    0.030294     -0.041653     0.022800
    0.060853     -0.029109     0.010897
    0.056809      0.023394    -0.018822
    0.048689      0.041689    -0.028181
    0.058191      0.042788    -0.040343
    0.065211     -0.029086    -0.040818
    0.067681     -0.107366    -0.029009
    0.061444     -0.126689    -0.005234
    0.045216     -0.062149     0.000556
    0.038897      0.053240     0.023137
    0.024634      0.116412     0.027440
   -0.006138      0.110233     0.013847
   -0.044501      0.067563     0.002364
   -0.045460      0.050211     0.001593
   -0.031641      0.033201     0.011806
    0.007598      0.015383     0.008161
    0.009716      0.002706     0.028863
   -0.019214     -0.033384     0.043837
   -0.074045     -0.049867     0.045805
   -0.132098     -0.079073    -0.004033
   -0.142786     -0.083149    -0.049559
   -0.138833     -0.049820    -0.082348
   -0.071820     -0.023720    -0.061947
    0.019212     -0.017846    -0.025872
    0.111164     -0.037630     0.006500
    0.141807     -0.018884     0.022935
    0.123771      0.000571     0.019558
    0.093820      0.043134     0.017584
    0.049726      0.048810     0.031255
    0.007326      0.024904     0.061287
   -0.017631     -0.018654     0.076038
   -0.020843     -0.043985     0.059835
    0.005555     -0.013467     0.013042
    0.023749      0.023198    -0.032951
    0.042655      0.065201    -0.064992
    0.056109      0.049781    -0.091753
    0.070770      0.015781    -0.099486
    0.021179     -0.023125    -0.067066
   -0.056853     -0.030482    -0.026017
   -0.157529     -0.012663     0.007609
   -0.177854      0.016059     0.033407
   -0.107788      0.057545     0.077999
   -0.013085      0.084941     0.090947
    0.063698      0.100632     0.079468
    0.063197      0.085437     0.028745
    0.014303     -0.008234    -0.017930
   -0.020209     -0.123761    -0.039046
    0.001733     -0.198144    -0.059383
    0.049974     -0.164255    -0.044253
    0.104000     -0.080383    -0.022806
    0.111193      0.016632     0.004802
    0.066735      0.073729     0.014227
   -0.002664      0.076134     0.018128
   -0.044199      0.063058    -0.002454
   -0.061847      0.023074    -0.017346
   -0.070116      0.006376    -0.022973
   -0.068702     -0.011699    -0.006302
   -0.035798      0.020464     0.020871
   -0.018098      0.040219     0.040161
    0.008970      0.054231     0.034579
    0.009895      0.025561    -0.000143
   -0.002134     -0.039202    -0.027119
   -0.019624     -0.071547    -0.028710
   -0.028741     -0.079053    -0.015130
   -0.003859     -0.024193    -0.000161
    0.034168      0.029741     0.010473
    0.057694      0.060512     0.010259
    0.025805      0.051951     0.017305
    0.003655      0.004030     0.018042
   -0.009553     -0.038200     0.019257
    0.005852     -0.063902    -0.000379
    0.022344     -0.015962    -0.020318
    0.007265      0.032133    -0.048502
    0.014731      0.060933    -0.044857
    0.000443      0.039730    -0.031302
    0.007972      0.001543     0.000249
    0.002485     -0.013118     0.035395
    0.001541     -0.036986     0.053259
    0.016237     -0.017807     0.058114
    0.036604     -0.012037     0.052048
    0.054969      0.001308     0.039211
    0.037743     -0.025345     0.016693
    0.000497     -0.023645    -0.010060
   -0.063084      0.011418    -0.048782
   -0.081510      0.051962    -0.070361
   -0.069566      0.075628    -0.082576
   -0.047222      0.047485    -0.064214
    0.008199      0.016187    -0.031869
    0.060657     -0.007861    -0.014948
    0.057349      0.026386     0.010777
    0.061826      0.051280     0.068501
    0.076661      0.041667     0.074269
    0.033162     -0.000203     0.033764
   -0.080299     -0.072695    -0.006280
   -0.161683     -0.113296    -0.013674
   -0.156612     -0.127732    -0.020665
   -0.078227     -0.091365    -0.030658
    0.024489     -0.026703    -0.018705
    0.114511      0.032420    -0.010190
    0.145080      0.073092    -0.000928
    0.099516      0.056576     0.001722
    0.019195      0.044626     0.008691
   -0.058295      0.017717     0.016496
   -0.096952      0.008054     0.028344
   -0.107182      0.001313     0.025936
   -0.058032      0.001218     0.036428
    0.020994     -0.003011     0.036195
    0.097828     -0.022373     0.015434
    0.128612     -0.028241    -0.007066
