STRONG GROUND MOTION RECORDS OF TURKIYE
PLACE                   : AYDýN KARPUZLU HALK EGITIM MERKEZI
EARTHQUAKE DATE         : 2017/07/24 06:59:25 (GMT)
EPICENTER COORDINATES   : 36.94630N-27.58850E
EARTHQUAKE DEPTH (km)   : 10.69
EARTHQUAKE MAGNITUDE    : 3.0 ML
STATION ID              : 0919
STATION COORDINATES     : 37.55950N-27.83550E
STATION ALTITUDE (m)    : 108
RECORDER TYPE           : GeoSig gmsplus
RECORDER SERIAL NO      : 53827/101900
RECORD TIME             : 24/07/2017 06:59:24.000000 (GMT)
NUMBER OF DATA          : 5572
SAMPLING INTERVAL (sec) : 0.01
RAW PGA VALUES (gal)    : (N-S) 0.159564 (E-W) 0.180874 (U-D) 0.118244
Copyright EARTHQUAKE DEPARTMENT
DISASTER AND EMERGENCY MANAGEMENT PRESIDENCY
       N-S          E-W          U-D
[...]
   -0.014813     -0.005717     0.025728
   -0.026248      0.014813     0.015852
   -0.020011      0.021830     0.002599
    0.002339      0.004418    -0.001040
    0.003638     -0.014813     0.014553
   -0.029626     -0.042360     0.017152
   -0.056653     -0.055874     0.011694
   -0.050936     -0.027027     0.007796
   -0.029886      0.018971    -0.002079
   -0.031445      0.042100    -0.027547
   -0.032225      0.043140    -0.046258
   -0.014553      0.028067    -0.026248
    0.039241     -0.005977    -0.001299
    0.068608     -0.056913     0.013773
    0.039761     -0.072506     0.012214
    0.048077     -0.034564     0.015073
    0.071726     -0.003638     0.019491
    0.053275     -0.002339    -0.002339
   -0.018971     -0.017932    -0.010915
   -0.075624     -0.027027    -0.002339
   -0.055614     -0.019491     0.005717
   -0.017152      0.000000     0.005717
    0.001040      0.034044    -0.001819
    0.020270      0.061331    -0.011175
    0.063150      0.076924    -0.014293
    0.090437      0.101872    -0.011694
    0.077703      0.114086    -0.019491
    0.021050      0.094075    -0.015333
   -0.041580      0.061851     0.012994
   -0.080822      0.012734     0.032485
   -0.096414     -0.052235     0.014813
   -0.065229     -0.100832    -0.002079
   -0.037162     -0.110708    -0.008836
   -0.022349     -0.091996    -0.009096
   -0.029886     -0.057173     0.019491
   -0.037162     -0.025468     0.031705
    0.009356     -0.014293     0.047038
    0.062890      0.003638     0.054574
    0.081082      0.020270     0.039241
    0.051975      0.045478     0.030146
    0.028067      0.044439    -0.002079
    0.006237     -0.016892    -0.020790
   -0.016892     -0.043919    -0.031185
   -0.024169     -0.036123    -0.042360
   -0.033784      0.007017    -0.027027
   -0.003119      0.056393    -0.024169
    0.020011      0.033264    -0.031185
    0.019231      0.008836    -0.021050
    0.020011      0.008316    -0.011954
    0.005717      0.003898    -0.019231
   -0.025728      0.000000    -0.026507
   -0.039761      0.018451    -0.034304
   -0.006757      0.036123    -0.028327
   -0.002079      0.007796     0.004678
   -0.030146     -0.027287     0.038982
   -0.055874     -0.038462     0.040021
   -0.048077     -0.020530     0.019751
   -0.009615     -0.013514     0.030146
    0.028586     -0.013773     0.059772
    0.064969      0.006757     0.054314
    0.055874      0.024948     0.011435
    0.064449      0.031705    -0.013773
    0.094595      0.002599    -0.021050
    0.073025     -0.026248    -0.036643
    0.041840     -0.016632    -0.049637
    0.025468     -0.007017    -0.038462
    0.000520     -0.007277    -0.018191
   -0.024948      0.003898    -0.037682
   -0.042360      0.000260    -0.046258
   -0.103171     -0.000260    -0.002339
   -0.159564      0.034304     0.054054
   -0.140074      0.033524     0.070427
   -0.083680      0.014293     0.036383
   -0.038462      0.010395    -0.003898
   -0.002859     -0.009875    -0.028586
    0.036383     -0.046778    -0.010135
    0.067568     -0.076924     0.009875
    0.092776     -0.081342     0.012734
    0.108369     -0.071986     0.026767
    0.122142     -0.014813     0.020011
    0.101872      0.047038     0.014033
    0.057953      0.057953     0.002599
    0.004678      0.037942    -0.008576
   -0.086279      0.001819     0.001559
   -0.133577     -0.009096     0.007017
   -0.125001     -0.004678     0.002599
   -0.081342      0.018191    -0.021570
   -0.021830      0.050936    -0.026767
    0.033524      0.054314    -0.017932
    0.071206      0.046778    -0.011694
    0.061591      0.043399     0.004678
    0.056133      0.042100     0.014813
    0.040801      0.022869     0.028586
    0.013514     -0.033524     0.017932
   -0.029886     -0.091737    -0.007277
   -0.085240     -0.113566    -0.027547
   -0.091737     -0.096414    -0.027027
   -0.071466     -0.048077    -0.005457
   -0.026248     -0.003378    -0.016372
    0.025208      0.018711    -0.023129
    0.074325      0.026507    -0.009356
    0.108629      0.048857     0.008836
    0.102651      0.068608     0.025988
    0.077963      0.037682     0.033004
    0.043140     -0.002859     0.038982
    0.005717     -0.030146     0.018191
   -0.042100     -0.025468    -0.007277
   -0.082381     -0.005457    -0.024428
   -0.098234     -0.001040    -0.031185
   -0.068608      0.012994    -0.011954
   -0.010135      0.020790     0.001819
    0.024428      0.052235     0.010915
    0.021570      0.075884     0.012474
    0.001819      0.070167     0.003898
    0.018191      0.055874    -0.004418
    0.034304     -0.003378    -0.022869
    0.016112     -0.055614    -0.027287
   -0.019751     -0.086279    -0.000780
   -0.040541     -0.089917     0.019231
   -0.011175     -0.073285     0.020790
    0.040021     -0.041840     0.015852
    0.080302      0.001040    -0.001819
    0.069387      0.009615    -0.014033
    0.021310      0.006757    -0.013773
   -0.049377     -0.014813    -0.017152
   -0.097454     -0.003119    -0.024688
   -0.083161      0.034824    -0.013773
   -0.065749      0.032225     0.021050
   -0.044179      0.004158     0.048077
   -0.019491     -0.032485     0.053535
    0.018451     -0.026248     0.024948
    0.078483      0.009615    -0.019231
    0.122922      0.043140    -0.027807
    0.115905      0.025728    -0.017152
    0.055094     -0.017932    -0.005198
   -0.012994     -0.033524     0.005717
   -0.059772     -0.030665     0.003638
   -0.066009      0.005717     0.004418
   -0.063410      0.022609     0.009356
   -0.066269      0.029366     0.008316
   -0.070427      0.035603    -0.006237
   -0.054834      0.056913    -0.022609
   -0.008056      0.103691    -0.012734
    0.029106      0.103171    -0.009356
    0.056653      0.051716    -0.029626
    0.057173     -0.034564    -0.035863
    0.063930     -0.096154    -0.029366
    0.062890     -0.122662    -0.019751
    0.034564     -0.121363    -0.012994
    0.014293     -0.106030    -0.014553
   -0.013514     -0.079003     0.000260
   -0.034304     -0.020530     0.048077
   -0.068867      0.025988     0.090437
   -0.076144      0.076924     0.078223
   -0.042360      0.081342     0.045998
    0.009096      0.052495     0.011694
    0.052755      0.041580    -0.018191
    0.028327      0.041840    -0.027547
    0.004678      0.040281    -0.044959
    0.009875      0.002859    -0.047557
    0.043140      0.007796    -0.038982
    0.062890      0.024428    -0.021830
    0.028846      0.027027     0.011175
   -0.015852      0.027287     0.025468
   -0.052755     -0.006757     0.030925
   -0.058212     -0.037422     0.039761
   -0.053015     -0.056653     0.038462
   -0.025988     -0.052755     0.006757
    0.020270     -0.049377    -0.023389
    0.055354     -0.038982    -0.036643
    0.057953     -0.008056    -0.032225
    0.033004      0.025728    -0.014553
   -0.001040      0.044179    -0.003898
   -0.052495      0.031705     0.007536
   -0.059772      0.024428    -0.008576
   -0.039761      0.028846    -0.025728
   -0.020011      0.033524    -0.021570
   -0.018191      0.014813    -0.002339
   -0.033004     -0.020530     0.021050
   -0.003638     -0.060811     0.025728
    0.043140     -0.069647     0.030406
    0.070946     -0.051456     0.028846
    0.036903     -0.043919     0.033784
   -0.008836      0.005457     0.025208
   -0.016892      0.043399    -0.007277
   -0.005977      0.034824    -0.027027
    0.015333      0.003638    -0.033524
    0.016372     -0.022090    -0.014293
    0.004938     -0.012994     0.004938
   -0.011694     -0.006757     0.006237
   -0.001299      0.022349    -0.000780
    0.017152      0.053795    -0.009096
    0.024169      0.040021    -0.012214
    0.022349      0.002859    -0.018451
    0.007277     -0.023909    -0.022609
    0.020270     -0.003898    -0.014293
    0.022090      0.032485     0.003898
   -0.008576      0.023129     0.009615
   -0.046778     -0.030146     0.008836
   -0.056913     -0.063930     0.008316
   -0.039761     -0.044699    -0.001040
   -0.029626     -0.001559    -0.001819
   -0.030146      0.018971     0.019231
   -0.031185      0.000000     0.033004
    0.016112     -0.031705     0.035863
    0.070946     -0.035863     0.041580
    0.091217     -0.012214     0.018711
    0.075624      0.001559    -0.002859
    0.029366      0.003119    -0.013254
   -0.008056      0.002079    -0.028067
   -0.031965      0.005457    -0.030406
   -0.035863      0.020530    -0.037162
   -0.034824      0.041061    -0.029366
   -0.022609      0.067048     0.000000
   -0.018711      0.079003     0.019751
   -0.041320      0.062111     0.014553
   -0.047298      0.024948    -0.005977
   -0.038202     -0.017672    -0.018711
   -0.026507     -0.042620    -0.010915
   -0.030665     -0.047038    -0.003119
   -0.037422     -0.035863    -0.001040
   -0.010135     -0.036383     0.005198
    0.065749     -0.034824    -0.001040
    0.138774     -0.018971    -0.007277
    0.149689     -0.008576    -0.007796
    0.108888     -0.009875    -0.004158
    0.028586     -0.024948     0.004158
   -0.050156     -0.008836     0.009356
   -0.101872      0.000520     0.011694
   -0.105770     -0.001040     0.014813
   -0.078223      0.013514     0.017672
   -0.051716      0.020530     0.009875
   -0.023649      0.032745     0.000260
   -0.005457      0.040281     0.002079
    0.029366      0.045478     0.012474
    0.056653      0.029106     0.004938
    0.061071      0.014813    -0.020530
    0.058472      0.004158    -0.027027
    0.039501     -0.005977    -0.020011
    0.004418     -0.001819    -0.008576
   -0.033264     -0.012994     0.000260
   -0.038202     -0.018971    -0.015593
   -0.044439     -0.002599    -0.024428
   -0.057433      0.027287    -0.007017
   -0.056133      0.013254     0.007796
   -0.040541     -0.029366     0.011435
    0.000780     -0.056913     0.016632
    0.038722     -0.077703     0.013254
    0.058992     -0.078743     0.010915
    0.047038     -0.063150     0.021570
    0.028846     -0.031705     0.021310
    0.023389     -0.000260     0.027287
    0.020790      0.035083     0.029366
    0.020790      0.059772     0.016632
    0.005198      0.082121     0.001559
   -0.004158      0.103691    -0.029106
    0.003119      0.087838    -0.045738
    0.014553      0.069127    -0.033004
    0.004158      0.037162    -0.019751
   -0.017152      0.003119    -0.004678
   -0.027547     -0.004678     0.003378
   -0.041320     -0.003378    -0.014813
   -0.067828      0.005457    -0.026767
   -0.090697     -0.000780    -0.012734
   -0.074325     -0.018711     0.005198
   -0.034304     -0.050156     0.008056
    0.035083     -0.060032     0.005977
    0.098234     -0.040021     0.019491
    0.108629     -0.022869     0.017412
    0.092516     -0.012734    -0.002859
    0.067048     -0.036123     0.002079
    0.048597     -0.075884     0.011175
    0.019751     -0.095115    -0.001040
   -0.017932     -0.066009    -0.007277
   -0.062890     -0.024688     0.004938
   -0.085500     -0.017152     0.010135
   -0.064190     -0.014813     0.004158
   -0.027027     -0.001299    -0.006757
    0.006237      0.016632    -0.008056
   -0.002339      0.039241     0.013773
   -0.029886      0.057693     0.024688
   -0.058472      0.053795     0.012474
   -0.043659      0.054574    -0.006237
    0.020530      0.054574    -0.028327
    0.058212      0.056653    -0.048337
    0.074325      0.070946    -0.049637
    0.054054      0.072766    -0.024688
    0.010915      0.068608     0.005457
   -0.020011      0.025988     0.011954
   -0.027287     -0.027807     0.001040
   -0.016372     -0.055874     0.005977
   -0.009615     -0.067048     0.021310
   -0.004418     -0.055874     0.026507
   -0.003898     -0.047038     0.018191
    0.026248     -0.044959     0.005457
    0.061331     -0.024169    -0.000520
    0.064969      0.026767    -0.006757
    0.040801      0.058992    -0.008316
    0.007277      0.075364    -0.010395
   -0.015333      0.086799    -0.015073
   -0.033524      0.070687    -0.004418
   -0.046518      0.055094     0.007796
   -0.096154      0.037682     0.010655
   -0.130718      0.022609     0.013514
   -0.114866      0.014553     0.025468
   -0.067568      0.012734     0.028846
   -0.009356      0.008056     0.011694
    0.018971     -0.012734    -0.002599
    0.048597     -0.047298    -0.001559
    0.042100     -0.099013     0.004678
    0.033524     -0.130718     0.008576
    0.056393     -0.142932     0.018451
    0.074845     -0.149169     0.025728
    0.087059     -0.155147     0.017672
    0.067308     -0.147090     0.001819
    0.051456     -0.093556    -0.021310
    0.041320     -0.025728    -0.049896
    0.031705      0.024688    -0.055874
    0.011175      0.032485    -0.048597
   -0.016892      0.016632    -0.049117
   -0.020011      0.000260    -0.032745
   -0.019491     -0.000520    -0.002599
   -0.036903      0.023909     0.026507
   -0.075104      0.050416     0.054834
   -0.079262      0.090697     0.068867
   -0.063670      0.127340     0.056393
   -0.056393      0.161124     0.024169
   -0.054574      0.180874     0.004158
   -0.054574      0.173338    -0.008056
   -0.021050      0.149949    -0.026507
    0.015073      0.109928    -0.037682
    0.049896      0.079003    -0.031445
    0.062890      0.045738    -0.010655
    0.058212     -0.007017     0.000780
    0.069907     -0.073285     0.000260
    0.066269     -0.110967    -0.002339
    0.040541     -0.112527     0.008316
    0.018711     -0.116945     0.022869
    0.008576     -0.131758     0.024169
   -0.009875     -0.142413     0.020530
   -0.008836     -0.120323     0.005717
   -0.001819     -0.088618    -0.007277
    0.000780     -0.057433    -0.014553
    0.001299     -0.024428    -0.019231
   -0.017932      0.013254    -0.018711
   -0.020270      0.046258    -0.026767
   -0.019231      0.049117    -0.030406
   -0.025728      0.050416    -0.027807
   -0.040541      0.035863    -0.021050
   -0.041061      0.009356    -0.001040
   -0.018971      0.004678     0.021310
    0.001819      0.004938     0.025208
    0.025728     -0.004938     0.007277
    0.024948     -0.007796    -0.002079
    0.010915      0.007796     0.005457
   -0.003119      0.028846     0.007277
   -0.011694      0.036383     0.001299
   -0.028586      0.010135     0.008316
   -0.063670     -0.014813     0.021830
   -0.090957     -0.007796     0.029626
   -0.088618      0.022609     0.030925
   -0.030925      0.052755     0.019751
    0.029106      0.057173     0.002079
    0.069387      0.046258    -0.021830
    0.089658      0.028067    -0.034304
    0.088618      0.030146    -0.029106
    0.093816      0.022869    -0.015073
    0.079782     -0.014033    -0.008836
    0.052495     -0.037422    -0.014033
    0.015073     -0.053015    -0.011954
   -0.013773     -0.049117    -0.015593
   -0.022869     -0.037422    -0.012214
   -0.023909     -0.034824    -0.001040
   -0.026767     -0.025728    -0.001819
   -0.035343     -0.015593    -0.000260
   -0.037162     -0.017932     0.003898
   -0.046518     -0.027287     0.013254
   -0.033784     -0.023909     0.022349
   -0.012994     -0.020270     0.033524
    0.010655     -0.007796     0.038462
    0.040801      0.003119     0.024688
    0.032745      0.006237     0.013514
    0.004938      0.003378     0.004418
   -0.026248      0.009356    -0.003898
   -0.033784      0.031705    -0.015852
   -0.031965      0.027287    -0.020011
   -0.033524      0.029106    -0.012474
   -0.035863      0.033264    -0.012994
   -0.028846      0.037162    -0.014033
    0.018971      0.066009    -0.016632
    0.058992      0.075624    -0.017412
    0.056653      0.053535    -0.019491
    0.019751      0.012214    -0.020530
   -0.004938     -0.018971    -0.015333
   -0.001559     -0.032485    -0.010915
    0.011954     -0.020530     0.004938
    0.020790     -0.005717     0.024688
    0.009096     -0.018971     0.034044
    0.009875     -0.038722     0.028846
    0.010915     -0.060551     0.011435
    0.005457     -0.050936     0.000520
   -0.001040     -0.030406    -0.002339
   -0.009096     -0.029366    -0.000260
   -0.028067     -0.033264     0.002599
   -0.047817     -0.047817    -0.004678
   -0.030925     -0.044179    -0.016632
   -0.007277     -0.011954    -0.018971
    0.020270      0.023129    -0.013254
    0.029106      0.028067    -0.000780
    0.022349      0.023649     0.005198
    0.018191      0.018711    -0.001819
    0.004678     -0.001819     0.000780
   -0.002599     -0.012734     0.011435
   -0.019751     -0.014553     0.013514
   -0.021570     -0.008316     0.010395
   -0.012214      0.009875     0.017412
    0.005977      0.045998     0.027027
    0.030146      0.061071     0.018451
    0.039501      0.055354    -0.005198
    0.041580      0.054314    -0.019751
    0.001299      0.039501    -0.016112
   -0.053535      0.023909    -0.025468
   -0.093296      0.005198    -0.043140
   -0.095895     -0.007536    -0.036643
   -0.070427     -0.012214    -0.011694
   -0.051196     -0.010135     0.015852
   -0.018711      0.000260     0.034304
    0.022869      0.005717     0.035863
    0.075884      0.014813     0.033524
    0.108369      0.025468     0.023649
    0.113046      0.027287    -0.006757
    0.100832      0.008836    -0.022090
    0.063150     -0.013514    -0.015333
    0.019751     -0.032745    -0.014813
   -0.007796     -0.048337    -0.015333
    0.001559     -0.054834    -0.016112
   -0.000780     -0.047038    -0.015852
   -0.027807     -0.016632    -0.009875
   -0.061851     -0.004158     0.003119
   -0.090437     -0.012994     0.017152
   -0.093556     -0.021830     0.027287
   -0.073025     -0.013773     0.035603
   -0.039501      0.001299     0.034304
   -0.020270      0.002599     0.025468
    0.014813      0.013254     0.011175
    0.058212      0.026248    -0.003378
    0.089398      0.045478    -0.019491
    0.103431      0.043919    -0.034044
    0.089398      0.019491    -0.034564
    0.074065      0.010395    -0.026507
    0.042620     -0.004418    -0.015073
    0.006757     -0.016892    -0.001819
   -0.033524     -0.026767     0.012214
   -0.068088     -0.030146     0.014553
   -0.091477     -0.009615     0.015593
   -0.106550      0.012214     0.023909
   -0.097714      0.014813     0.018971
   -0.088618      0.006237     0.003638
   -0.056913      0.003378    -0.004158
   -0.025208      0.007277     0.003378
    0.003638      0.009356     0.022349
    0.030406     -0.007017     0.028586
    0.044439     -0.023909     0.015073
    0.077183     -0.018711    -0.002079
    0.103691     -0.000780    -0.023649
    0.106290      0.014033    -0.037942
    0.071986      0.017672    -0.033264
    0.029626      0.008836    -0.028846
