STRONG GROUND MOTION RECORDS OF TURKIYE
PLACE                   : MUðLA OREN BELEDIYE
EARTHQUAKE DATE         : 2017/07/24 06:59:25 (GMT)
EPICENTER COORDINATES   : 36.94630N-27.58850E
EARTHQUAKE DEPTH (km)   : 10.69
EARTHQUAKE MAGNITUDE    : 3.0 ML
STATION ID              : 4819
STATION COORDINATES     : 37.03130N-27.97120E
STATION ALTITUDE (m)    : 10
RECORDER TYPE           : GeoSig gmsplus
RECORDER SERIAL NO      : 53977/101913
RECORD TIME             : 24/07/2017 06:59:24.000000 (GMT)
NUMBER OF DATA          : 5526
SAMPLING INTERVAL (sec) : 0.01
RAW PGA VALUES (gal)    : (N-S) 0.991951 (E-W) 1.205569 (U-D) 0.840702
Copyright EARTHQUAKE DEPARTMENT
DISASTER AND EMERGENCY MANAGEMENT PRESIDENCY
       N-S          E-W          U-D
[...]
   -0.007017      0.066529    -0.092776
   -0.031445      0.009096    -0.051716
    0.046778     -0.100832    -0.072766
    0.063410     -0.112527    -0.129938
   -0.045738     -0.019231    -0.126040
   -0.183473      0.066529    -0.010915
   -0.122142      0.151248     0.028846
    0.030925      0.022349     0.080042
    0.036123     -0.059512     0.127080
    0.010135     -0.014553     0.057433
   -0.000260      0.021570    -0.012994
    0.017932     -0.048857    -0.009615
   -0.082121     -0.123701     0.073025
   -0.062370     -0.005977     0.103691
    0.107589      0.079003     0.045738
    0.117984      0.087319    -0.009356
    0.045998      0.040801    -0.040801
   -0.066009      0.017412    -0.046518
   -0.066529     -0.018191    -0.042100
   -0.044179     -0.083940    -0.038982
   -0.001819     -0.069647    -0.007017
    0.073545     -0.026767     0.032485
    0.038202      0.014553     0.040281
    0.017412      0.024948     0.028586
    0.015333      0.051196    -0.006237
    0.012214     -0.049896    -0.050416
   -0.029626     -0.126300    -0.083940
   -0.058472     -0.003119    -0.052235
   -0.071466      0.123701    -0.010395
   -0.048857      0.145791    -0.000520
    0.012474      0.040801     0.094335
    0.073285     -0.017412     0.156446
    0.130978     -0.028067     0.069387
    0.018451     -0.010135    -0.056653
   -0.053015     -0.048077    -0.104730
   -0.037162     -0.088618    -0.053275
   -0.022609     -0.010395     0.010395
    0.020790      0.066529     0.020011
   -0.041320      0.169700     0.007536
   -0.104730      0.176976    -0.001040
   -0.055614      0.061331    -0.017672
    0.039241     -0.095115    -0.005977
    0.062370     -0.111227    -0.003898
    0.110967     -0.047557     0.001040
    0.103691     -0.072246     0.029626
   -0.034304     -0.029106     0.007796
   -0.099533      0.025208    -0.001040
   -0.080302      0.076404     0.044439
    0.002079      0.013514     0.113826
    0.106290     -0.070687     0.115905
    0.178016     -0.046258    -0.000780
    0.011175      0.009875    -0.148910
   -0.186852      0.036643    -0.238567
   -0.143712     -0.077963    -0.195687
   -0.077703     -0.065489    -0.076664
    0.034564      0.051716     0.024169
    0.088618      0.108629     0.099273
    0.010135      0.043140     0.155926
   -0.044179     -0.071726     0.129938
    0.034564     -0.033784     0.047557
    0.112007      0.068608    -0.017932
    0.024169      0.061331    -0.036123
   -0.055874     -0.114606     0.045219
   -0.060551     -0.083940     0.054314
   -0.019231      0.042880    -0.028846
   -0.032225      0.020270    -0.063410
   -0.087838      0.013514    -0.044959
   -0.076664     -0.026767     0.033524
    0.007536     -0.012994     0.069387
    0.030665      0.016112     0.038982
   -0.017672      0.011694    -0.020011
   -0.002339     -0.028067    -0.046518
    0.000520     -0.056133    -0.035083
    0.075364     -0.062111    -0.073285
    0.108629     -0.068608    -0.061591
    0.097454      0.005717    -0.011694
    0.082901      0.045478    -0.001040
   -0.070946      0.066009     0.004938
   -0.073285      0.002599     0.011435
   -0.003378     -0.031705     0.000520
    0.010135      0.024688    -0.003638
    0.061071      0.047557     0.035083
    0.069127      0.046778     0.090437
   -0.030665     -0.014553     0.091477
   -0.100053     -0.051716     0.004158
   -0.061851     -0.136435    -0.058212
   -0.111227     -0.076404    -0.062890
   -0.090697      0.113826    -0.016632
    0.018971      0.232070     0.039241
    0.022090      0.245844     0.037422
   -0.062890      0.053015     0.048077
   -0.020270     -0.085240     0.044959
    0.165022     -0.162163     0.007536
    0.188671     -0.146051    -0.044699
    0.107329     -0.006757    -0.064709
    0.007536      0.064449    -0.036123
   -0.038462      0.031965    -0.024688
   -0.084200     -0.054574    -0.014553
   -0.111487     -0.081342     0.016112
   -0.010655     -0.078483     0.077703
    0.027547     -0.016372     0.097714
    0.044439      0.011694     0.066009
    0.019751      0.035603     0.052755
   -0.029626      0.077183     0.034564
   -0.034564      0.052495    -0.023909
    0.030406      0.038202    -0.094075
    0.110708      0.012474    -0.130458
    0.055094      0.050676    -0.139554
    0.011175      0.052755    -0.108888
   -0.022090      0.060551    -0.085500
   -0.029366      0.039761    -0.068088
   -0.011694     -0.052495     0.000000
   -0.086019     -0.031445     0.086019
   -0.182694     -0.029626     0.129679
   -0.123442     -0.037682     0.071206
    0.003378      0.007796     0.020270
    0.014813      0.082901     0.060551
    0.091477      0.042100     0.095375
    0.132277     -0.062890     0.092516
    0.097194     -0.072246     0.107589
    0.101612     -0.015593     0.088878
    0.112267      0.026507    -0.004678
    0.061331     -0.024688    -0.086019
   -0.074845     -0.016112    -0.132277
   -0.096934     -0.060032    -0.141633
   -0.078743     -0.125001    -0.158785
   -0.060032     -0.072506    -0.167621
   -0.089917      0.080822    -0.117205
   -0.136695      0.187111    -0.032485
   -0.072506      0.038722     0.075364
   -0.017412     -0.062370     0.128119
    0.050936     -0.097194     0.150729
    0.111487     -0.073805     0.157485
    0.161643      0.016892     0.121363
    0.112267      0.040281     0.074065
    0.004678      0.062370    -0.012214
   -0.071206      0.011175    -0.091477
   -0.145271     -0.030146    -0.095895
   -0.101092     -0.018191    -0.042880
   -0.040801      0.033784    -0.026248
   -0.007277      0.027027    -0.084200
   -0.019491      0.001299    -0.127080
   -0.042880      0.008836    -0.036383
   -0.030925     -0.070687     0.115905
    0.010655     -0.105770     0.155666
    0.080822     -0.071206     0.117984
    0.048597      0.045219     0.077183
    0.025468      0.102132     0.080302
    0.025468      0.050156     0.090957
    0.033004      0.024428     0.032745
    0.058992      0.045738    -0.072506
    0.079782      0.060291    -0.132277
    0.092776     -0.021570    -0.083680
    0.050156     -0.026248    -0.060551
    0.030146     -0.017412    -0.084460
   -0.059252     -0.055354    -0.044179
   -0.156186     -0.047298     0.033524
   -0.159564      0.027287     0.053795
   -0.071466      0.123961     0.017152
    0.056133      0.089917    -0.031705
    0.039761      0.021310    -0.067568
   -0.037682     -0.005457    -0.043140
   -0.010915     -0.010655    -0.005977
    0.076144     -0.069387     0.044179
    0.071986     -0.106290     0.110708
    0.127600     -0.086279     0.104990
    0.184773     -0.064969     0.009356
    0.045219     -0.012474    -0.094595
   -0.130198      0.008836    -0.101352
   -0.226873      0.114086    -0.044439
   -0.177496      0.174118     0.018711
   -0.084720      0.134356     0.047557
    0.001559      0.094855     0.043659
    0.052495     -0.003378     0.033264
    0.055094     -0.092776     0.022349
    0.041580     -0.149689     0.019491
    0.040021     -0.117464    -0.037682
    0.088618     -0.062890    -0.067308
   -0.008316     -0.011175    -0.004158
   -0.101352      0.029366     0.060551
   -0.045478      0.050156     0.075104
    0.024688      0.084980     0.056653
    0.051975      0.084720     0.058992
    0.086279      0.086019     0.071986
    0.171259      0.034824     0.023129
    0.137215     -0.064969    -0.084460
   -0.041061     -0.194648    -0.109148
   -0.231291     -0.211280    -0.080302
   -0.179575     -0.116425    -0.085240
   -0.010915      0.032225    -0.084720
    0.041061      0.196467    -0.078223
    0.006497      0.137995    -0.057953
   -0.108369      0.063150    -0.092516
   -0.044439      0.000520    -0.154107
    0.084200     -0.035083    -0.126040
    0.129938      0.006757    -0.006237
    0.147870      0.017672     0.178016
    0.048857      0.056393     0.323287
   -0.055874     -0.014293     0.316530
   -0.067568     -0.093556     0.186072
   -0.043399     -0.142153     0.080822
   -0.057433     -0.159045     0.041061
   -0.017152     -0.091477     0.001040
    0.011694     -0.032485    -0.074585
    0.013773      0.020011    -0.156706
    0.031705      0.036383    -0.181914
    0.036383      0.064190    -0.190750
    0.043399      0.049637    -0.203744
   -0.087319      0.015073    -0.116945
   -0.146831      0.023649     0.041840
   -0.097194     -0.015073     0.135396
   -0.115645     -0.061331     0.151768
   -0.099013     -0.042100     0.153847
    0.034304      0.007017     0.184773
    0.198026      0.061331     0.196467
    0.206342      0.123442     0.111487
    0.137475      0.085759     0.004418
    0.010915      0.038722    -0.069647
   -0.081082      0.025468    -0.156446
   -0.086799      0.034564    -0.231031
   -0.109148      0.091477    -0.254420
   -0.050416      0.055094    -0.220376
    0.047298      0.017152    -0.142932
    0.140334      0.003638    -0.071206
    0.154107      0.043659    -0.040021
    0.092516      0.072766    -0.005457
    0.019231     -0.039501     0.067828
   -0.006497     -0.179055     0.168140
    0.020530     -0.202964     0.244804
   -0.034564     -0.069647     0.230511
   -0.115126     -0.035863     0.173078
   -0.139814     -0.064969     0.102392
   -0.045478     -0.112787     0.041580
    0.053535     -0.178795     0.006757
    0.106030     -0.126040    -0.039241
    0.126560     -0.033264    -0.068608
    0.076664      0.106550    -0.091737
   -0.013514      0.207642    -0.133577
   -0.143452      0.246883    -0.187891
   -0.200365      0.191269    -0.163463
   -0.267413      0.097194    -0.058732
   -0.178795      0.010395     0.016632
    0.024688     -0.086019     0.102132
    0.085759     -0.017152     0.179055
    0.197247      0.089658     0.191010
    0.316790      0.169440     0.149949
    0.379161      0.145011     0.069647
    0.265075      0.060811    -0.045998
    0.005977      0.025988    -0.147090
   -0.189450     -0.035603    -0.140074
   -0.222974     -0.044439    -0.077183
   -0.093556     -0.058472    -0.050416
   -0.048857     -0.032225    -0.084460
   -0.063930     -0.017672    -0.104730
    0.001559     -0.080042    -0.042100
    0.108109     -0.192569     0.022609
    0.064449     -0.336281     0.011175
   -0.146311     -0.361229     0.012734
   -0.279888     -0.247663     0.120323
   -0.170219     -0.016112     0.216478
    0.051716      0.114346     0.191529
    0.053795      0.045998     0.092776
   -0.064709     -0.059252     0.022869
   -0.139814     -0.020270    -0.007796
   -0.020011      0.136176    -0.029106
    0.237528      0.223754    -0.099533
    0.266374      0.231810    -0.253380
    0.000260      0.228432    -0.338620
   -0.356811      0.304056    -0.244804
   -0.413984      0.232850    -0.035083
   -0.145011     -0.011435     0.121882
    0.249742     -0.188671     0.174637
    0.502082     -0.152288     0.217257
    0.465959      0.012994     0.250002
    0.303536     -0.009615     0.188411
    0.084200     -0.070946     0.051975
   -0.020790     -0.020011    -0.049637
   -0.026507      0.155406    -0.085240
   -0.106030      0.231810     0.001040
   -0.254679      0.086279     0.141633
   -0.250002     -0.095635     0.147870
   -0.100832     -0.341219     0.035863
    0.030665     -0.412945    -0.093816
    0.141633     -0.241686    -0.137735
    0.113566     -0.005717    -0.086019
    0.066788      0.077443    -0.054834
   -0.006757      0.067048    -0.101092
   -0.118244      0.154367    -0.159305
   -0.138774      0.107589    -0.160604
   -0.143972     -0.053015    -0.134356
   -0.142413     -0.241426    -0.062111
   -0.128899     -0.331863     0.027807
   -0.067048     -0.190750     0.125001
    0.024688      0.110188     0.231291
    0.208941      0.360190     0.245064
    0.304836      0.416063     0.185292
    0.113566      0.373443     0.098753
   -0.096674      0.173858    -0.042360
   -0.122142     -0.038202    -0.236748
   -0.020011     -0.166061    -0.386177
   -0.021050     -0.199066    -0.395793
   -0.161384     -0.145011    -0.214658
   -0.346156     -0.213619     0.103951
   -0.180615     -0.286644     0.347196
    0.304836     -0.168920     0.378641
    0.416843      0.069127     0.248702
    0.119543      0.176456     0.133577
   -0.241166      0.155147     0.074585
   -0.356551     -0.017932    -0.014553
   -0.305096     -0.251041    -0.132277
   -0.226613     -0.156706    -0.219596
   -0.057693      0.160084    -0.212060
    0.142672      0.339399    -0.122402
    0.299118      0.200885     0.006757
    0.259617      0.077443     0.076924
    0.203484      0.138255     0.035863
    0.244804      0.165282    -0.031705
    0.339659      0.149429    -0.024948
    0.450107      0.173338     0.038982
    0.562634      0.266634     0.031705
    0.664505      0.316530     0.004418
    0.497924      0.354472     0.048077
    0.087059      0.283526     0.128899
   -0.416323      0.130718     0.135656
   -0.758321     -0.038202     0.003638
   -0.780671     -0.359930    -0.167101
   -0.632800     -0.782230    -0.220116
   -0.531189     -1.173605    -0.090437
   -0.617728     -1.205569     0.065229
   -0.685556     -0.836024     0.118504
   -0.543923     -0.293921     0.119284
   -0.237528      0.115385     0.214658
    0.109668      0.265075     0.346416
    0.555357      0.237008     0.267413
    0.831606      0.139034    -0.042100
    0.674641      0.232590    -0.372404
    0.306915      0.463880    -0.505461
   -0.135916      0.793924    -0.501822
   -0.389815      0.980776    -0.422560
   -0.357851      0.796263    -0.229212
   -0.030146      0.339399    -0.006237
    0.369805     -0.186592     0.156706
    0.520274     -0.398391     0.226093
    0.452706     -0.356031     0.264815
    0.241426     -0.175157     0.300678
    0.192049      0.060551     0.287944
    0.377082      0.186072     0.220116
    0.609152      0.092776     0.179575
    0.513257     -0.177496     0.196467
    0.005717     -0.384618     0.172818
   -0.500523     -0.475575     0.060551
   -0.862012     -0.394233    -0.128639
   -0.991951     -0.187891    -0.296780
   -0.835505      0.008576    -0.308994
   -0.419961      0.056133    -0.132537
   -0.008576      0.041320     0.078223
    0.214918      0.056133     0.118504
    0.277809     -0.013773     0.021050
    0.277809     -0.078223    -0.063150
    0.320688     -0.080042    -0.096154
    0.204523      0.092256    -0.149169
    0.051716      0.336021    -0.215178
   -0.010395      0.539765    -0.216218
    0.028327      0.683477    -0.127340
    0.114346      0.614609    -0.030925
    0.076144      0.272091    -0.007796
    0.096674     -0.297299    -0.010655
    0.153587     -0.702188     0.035083
    0.024428     -0.747926     0.199326
   -0.324846     -0.396572     0.343557
   -0.548600      0.033004     0.336541
   -0.464920      0.117464     0.308994
   -0.226873     -0.075364     0.304576
    0.117464     -0.538465     0.261436
    0.402030     -0.839403     0.106030
    0.524172     -0.655930    -0.181394
    0.442830     -0.187631    -0.469598
    0.226353      0.258318    -0.584723
   -0.090957      0.452186    -0.487009
   -0.395533      0.532488    -0.279888
   -0.510139      0.531189    -0.066529
   -0.443610      0.422820     0.105250
   -0.200885      0.364867     0.235449
    0.097194      0.497924     0.265334
    0.358111      0.648393     0.192049
    0.277809      0.675420     0.111227
   -0.014553      0.391115     0.041580
    0.069647     -0.268713    -0.010655
    0.400470     -0.688414    -0.057173
    0.468298     -0.632800    -0.072246
    0.178795     -0.354732     0.000520
   -0.081861     -0.143452     0.097454
   -0.203484     -0.120583     0.079522
   -0.303536     -0.243505    -0.014033
   -0.350314     -0.369285    -0.060551
   -0.211540     -0.312372    -0.069127
    0.041320     -0.221935    -0.060291
    0.186072     -0.192049    -0.070427
    0.112267     -0.157745    -0.054834
   -0.296780      0.080822    -0.035343
   -0.646574      0.384358    -0.071466
   -0.687375      0.534047    -0.074325
   -0.529889      0.454525     0.038202
   -0.237008      0.084980     0.213359
    0.062370     -0.179575     0.257018
    0.411905     -0.240386     0.147610
    0.715441     -0.109668     0.002599
    0.878124      0.099273    -0.106030
    0.840702      0.201665    -0.180355
    0.607852      0.280667    -0.233370
    0.225573      0.301197    -0.226613
   -0.178016      0.285605    -0.200105
   -0.375262      0.154627    -0.105770
   -0.335761     -0.015333     0.116685
   -0.051196     -0.090177     0.335501
    0.194388     -0.150469     0.422560
    0.332902     -0.287944     0.337060
    0.435034     -0.403849     0.151248
    0.386957     -0.291582     0.016112
    0.232850     -0.070687    -0.020790
   -0.063670      0.072246     0.019751
   -0.440232      0.078483     0.098753
   -0.805359      0.100053     0.099533
   -0.958946      0.170999    -0.002339
   -0.857334      0.159305    -0.127859
   -0.624484      0.002859    -0.255199
   -0.283266     -0.172818    -0.351873
    0.154107     -0.088618    -0.422040
    0.650732      0.032745    -0.440232
    0.804839      0.045998    -0.342258
    0.460242      0.015073    -0.175417
   -0.153327     -0.109148     0.035863
   -0.605773     -0.204003     0.242465
   -0.508579     -0.235189     0.352913
   -0.059512     -0.307434     0.428017
    0.245844     -0.353173     0.524692
    0.209981     -0.136695     0.531448
    0.119284      0.161384     0.370844
    0.090697      0.337840     0.049637
    0.188671      0.282486    -0.243505
    0.398391      0.010135    -0.330823
    0.516376     -0.109928    -0.329524
    0.362528      0.004938    -0.338620
   -0.099533      0.297039    -0.360449
   -0.432955      0.481812    -0.310033
   -0.505721      0.473496    -0.132018
   -0.328225      0.333682     0.078483
    0.043659      0.046258     0.192049
    0.334722     -0.149169     0.199326
    0.438932     -0.229991     0.244544
    0.264815     -0.147870     0.307954
   -0.075884     -0.048857     0.305875
   -0.360190     -0.022349     0.185552
   -0.332123     -0.040021    -0.047038
   -0.108629     -0.142932    -0.266374
    0.046778     -0.204783    -0.410606
    0.052495     -0.323807    -0.410866
   -0.044699     -0.385398    -0.335761
    0.055874     -0.316790    -0.299378
    0.276249     -0.139814    -0.240126
    0.332123      0.136955    -0.007277
    0.035083      0.332123     0.398132
   -0.347196      0.288463     0.740130
   -0.430876      0.107849     0.840702
   -0.299378      0.133057     0.643715
   -0.109668      0.184773     0.327445
    0.037422      0.009615     0.076664
    0.149169     -0.355772    -0.121882
    0.036903     -0.565232    -0.329004
