STRONG GROUND MOTION RECORDS OF TURKIYE
PLACE                   : MUðLA BODRUM METEOROLOJI MUDURLUGU
EARTHQUAKE DATE         : 2017/07/24 06:59:25 (GMT)
EPICENTER COORDINATES   : 36.94630N-27.58850E
EARTHQUAKE DEPTH (km)   : 10.69
EARTHQUAKE MAGNITUDE    : 3.0 ML
STATION ID              : 4809
STATION COORDINATES     : 37.03304N-27.43997E
STATION ALTITUDE (m)    : 25
RECORDER TYPE           : Guralp cmg5td
RECORDER SERIAL NO      : T5J71/A1167
RECORD TIME             : 24/07/2017 06:59:25.000000 (GMT)
NUMBER OF DATA          : 2333
SAMPLING INTERVAL (sec) : 0.01
RAW PGA VALUES (gal)    : (N-S) 0.669047 (E-W) 0.516467 (U-D) 0.437384
Copyright EARTHQUAKE DEPARTMENT
DISASTER AND EMERGENCY MANAGEMENT PRESIDENCY
       N-S          E-W          U-D
[...]
    0.029902     -0.078999    -0.005359
   -0.030981      0.078404     0.009783
    0.020112     -0.073755    -0.008377
   -0.008185      0.041400     0.007844
    0.001407     -0.009300    -0.010440
   -0.001549     -0.018233     0.004529
   -0.006905      0.049194    -0.002540
    0.027159     -0.058936     0.005764
   -0.034961      0.056869    -0.010879
    0.027770     -0.056390     0.012863
   -0.023268      0.049841    -0.009220
    0.025083     -0.053334    -0.005769
   -0.024419      0.046027     0.013213
    0.020948     -0.040330    -0.003007
   -0.018596      0.053873     0.002919
    0.009128     -0.039510    -0.008760
   -0.001977      0.012923     0.005175
    0.003170     -0.004018    -0.009438
    0.004029     -0.023528     0.014137
   -0.015605      0.054513    -0.011542
    0.016282     -0.048318     0.010382
   -0.022490      0.031669     0.000673
    0.025303     -0.025409    -0.008411
   -0.010052      0.027780     0.008679
    0.013633     -0.042836     0.000522
   -0.036421      0.061171    -0.011716
    0.032998     -0.053174     0.011403
   -0.025476      0.041565    -0.003677
    0.022366     -0.039517    -0.001197
   -0.006743      0.018880     0.000035
   -0.005999      0.010151     0.000672
    0.019686     -0.037815     0.001553
   -0.037967      0.050571    -0.013085
    0.026023     -0.042008     0.015726
   -0.005444      0.040012    -0.001663
    0.011670     -0.019950     0.009873
   -0.001435     -0.022968     0.047483
    0.022832     -0.033713     0.158725
    0.058352     -0.065016     0.129021
    0.046867     -0.006013    -0.075257
    0.000873      0.070218    -0.224009
   -0.013726     -0.065919    -0.015897
   -0.037551     -0.038569     0.252776
    0.005898     -0.029361     0.052546
   -0.028012      0.103921    -0.207344
   -0.052622      0.049973    -0.212225
   -0.098087      0.005673    -0.116173
   -0.092545      0.013431     0.038772
    0.012640     -0.029249     0.118026
    0.078305      0.100332     0.072925
    0.114409     -0.071786     0.001613
    0.034338     -0.002045    -0.169062
   -0.042222      0.016837    -0.122949
   -0.020943      0.059859     0.093684
    0.083800     -0.064866     0.273019
    0.029384     -0.068761    -0.056941
   -0.107714      0.114767    -0.437384
   -0.157612      0.033871     0.042060
   -0.026834      0.020930     0.114715
    0.133211     -0.052878     0.075577
    0.102337     -0.072804     0.323474
   -0.091189      0.081313     0.027823
   -0.138726      0.175882    -0.289428
    0.133288     -0.205180    -0.194956
    0.265258     -0.188092     0.160926
    0.152995      0.213176     0.108414
   -0.094371      0.192548     0.100327
   -0.352791     -0.067225     0.147395
   -0.360847     -0.048466    -0.305504
   -0.004160     -0.155475    -0.098571
    0.283981     -0.040912     0.366802
    0.250334      0.179155     0.123604
    0.039660      0.088722    -0.183966
   -0.027108     -0.260643    -0.058619
   -0.058435     -0.108911     0.005841
   -0.112535      0.112772    -0.052492
    0.134886     -0.072035    -0.030213
    0.154048      0.150145    -0.054977
   -0.090524     -0.026408     0.005681
   -0.245953      0.068184     0.022196
   -0.121392     -0.031901    -0.084427
    0.020850     -0.015155    -0.130225
    0.086122     -0.014645     0.121863
    0.097221      0.005516     0.155006
    0.066044      0.109456     0.017980
    0.057739      0.136203     0.071059
    0.041167      0.027248     0.120012
   -0.082687     -0.200234    -0.208187
   -0.201008     -0.050009    -0.231387
   -0.029687     -0.172681     0.074740
    0.050473      0.147700     0.114401
    0.120605      0.145543     0.227768
    0.069719      0.093698    -0.158758
   -0.044305     -0.068663    -0.126510
   -0.057165     -0.332810     0.074552
   -0.008099     -0.055655    -0.091069
    0.070790     -0.007574     0.152872
   -0.006999      0.032929     0.246999
   -0.070016      0.017818    -0.012824
   -0.095875     -0.055355    -0.298937
   -0.044876     -0.063385    -0.179445
    0.077572      0.153536     0.089557
    0.146110      0.256331     0.064946
    0.070532      0.145903    -0.047480
   -0.017254     -0.016753    -0.093990
   -0.059745     -0.241897     0.079996
   -0.051033      0.002983     0.057594
    0.041956      0.148445    -0.020888
    0.044180     -0.027005    -0.032646
   -0.029215     -0.039500    -0.100189
   -0.042606     -0.031974     0.032960
    0.008323      0.081864    -0.021179
    0.079899     -0.034789     0.132078
    0.028457     -0.173547     0.139040
   -0.094157      0.087481    -0.116151
   -0.147850      0.122771    -0.093648
   -0.032171     -0.029827     0.211666
    0.102502      0.046992     0.069209
    0.054432     -0.035467    -0.089549
   -0.029974     -0.096820    -0.000820
   -0.079135      0.156573    -0.106408
    0.019592     -0.119476     0.064350
    0.036414     -0.124423    -0.044792
    0.074988     -0.008082     0.048023
    0.069153     -0.105840     0.246951
   -0.021860      0.119811    -0.126877
    0.032763      0.045565    -0.281098
   -0.048983      0.004250    -0.103956
   -0.121828      0.014401     0.032549
   -0.074449     -0.049673     0.159357
    0.011659      0.074039    -0.039751
    0.073170     -0.031625    -0.040133
    0.115279     -0.313468     0.085220
    0.020976      0.144099    -0.013078
   -0.004152      0.228778     0.171285
    0.015104      0.100860     0.088162
    0.075531      0.205711    -0.146542
    0.176174     -0.115678    -0.109820
    0.000851     -0.121190    -0.062985
   -0.127703     -0.118495    -0.050298
   -0.214117     -0.126731    -0.112164
   -0.169022     -0.161767     0.066574
   -0.129710     -0.075176     0.069995
   -0.044560      0.103452     0.077148
    0.200620      0.185746     0.122999
    0.234365      0.230190     0.156671
    0.008766      0.082674     0.245010
   -0.129420      0.108325    -0.113271
   -0.067523      0.109016    -0.199371
    0.116613     -0.150624    -0.073701
    0.184719     -0.206685    -0.142650
    0.048352     -0.106123    -0.191857
   -0.038442     -0.143807     0.091853
   -0.293807      0.026505     0.045981
   -0.168986      0.036181    -0.075498
    0.075843      0.082832     0.063449
    0.154236      0.081573     0.108876
    0.154136     -0.038759     0.036275
    0.023880      0.059169    -0.195060
   -0.126889      0.020786    -0.021315
   -0.225640     -0.121996     0.026447
   -0.130306     -0.004228     0.026565
    0.031842      0.043740     0.055587
    0.182637      0.055532     0.053130
    0.059843      0.157163     0.039311
    0.004672      0.005886    -0.083268
   -0.004219     -0.000924     0.085749
    0.061791     -0.166790     0.029179
    0.057894     -0.130731    -0.095942
    0.085395     -0.087605    -0.048898
    0.032454     -0.145232     0.047752
   -0.149232      0.009500    -0.053393
    0.028200      0.039059     0.012534
    0.065403      0.022486     0.020988
   -0.052390      0.138685     0.008559
   -0.155032      0.016550     0.139371
   -0.152854     -0.031950     0.006402
   -0.085516      0.172166     0.032409
    0.053502      0.076750     0.066347
    0.130153      0.065870    -0.035165
   -0.023448     -0.080020    -0.038055
   -0.108360     -0.082337    -0.066053
    0.073616     -0.010371    -0.149939
    0.180752     -0.044874     0.063029
    0.130362      0.024920    -0.017060
    0.116955      0.066226     0.003448
    0.015755     -0.040789    -0.031835
   -0.077590     -0.007899    -0.003697
   -0.030926      0.024722     0.111366
    0.034677     -0.081781     0.039541
   -0.060646     -0.064204     0.016651
   -0.064145      0.029571    -0.164321
   -0.074844      0.040955    -0.154009
   -0.099205     -0.086632     0.099306
    0.017560      0.033400     0.228621
    0.046144      0.125365    -0.035361
    0.014518      0.145880    -0.159549
   -0.063687      0.023556     0.003767
   -0.065940     -0.180471     0.101531
    0.050248     -0.141818    -0.046975
    0.110379      0.006844     0.148765
    0.088644      0.101591     0.063264
    0.019925      0.148669    -0.102928
   -0.008801     -0.002145    -0.052577
    0.016594     -0.057627    -0.036662
   -0.016271     -0.077130     0.069323
   -0.065774     -0.038856     0.108098
   -0.099423     -0.000076     0.116889
   -0.062619     -0.083470    -0.172874
    0.014683     -0.049130    -0.205930
    0.037760     -0.021363    -0.008149
    0.026864      0.103820     0.158724
   -0.011030      0.047364    -0.009757
   -0.006051      0.008339     0.007309
    0.030434      0.054264    -0.051545
    0.152564      0.016279    -0.072798
    0.136155     -0.141904     0.048503
   -0.043425     -0.010927    -0.145893
   -0.154750      0.038909     0.012459
   -0.077953      0.022933    -0.108599
   -0.014075      0.008400     0.008509
    0.068460     -0.035746     0.143740
    0.148198      0.152383    -0.009044
    0.089310     -0.088513     0.130499
   -0.058536      0.022657    -0.043421
   -0.226964      0.072746    -0.004038
   -0.035506     -0.141431     0.034911
    0.002430      0.084579    -0.071103
   -0.027416      0.032415     0.100346
    0.002880     -0.069090     0.123471
   -0.014475      0.056433    -0.049008
    0.033614     -0.003859    -0.137443
    0.032561     -0.186618     0.206381
    0.006899      0.045051    -0.052155
   -0.008065      0.103855    -0.072135
   -0.033663     -0.120758     0.087016
   -0.048074      0.079074    -0.149270
   -0.017149     -0.016572     0.097321
    0.055634      0.050003    -0.059121
   -0.026664      0.059654     0.045684
   -0.006313     -0.172320     0.198863
    0.099227      0.090819    -0.143459
    0.127189     -0.083531    -0.070397
    0.172446     -0.066294     0.034108
   -0.039696      0.178643    -0.163367
   -0.066899     -0.059376     0.007121
   -0.157675      0.033872     0.122455
   -0.119858      0.079916    -0.038938
    0.039767     -0.136460    -0.104021
    0.050411     -0.026085    -0.045439
    0.053880      0.061544    -0.022317
    0.051160      0.033927     0.078181
    0.013130      0.102603    -0.001137
    0.035073      0.004263    -0.017746
   -0.030763     -0.102873     0.097167
   -0.131656      0.023414    -0.052276
   -0.029631     -0.087017    -0.027283
    0.024872     -0.092713     0.016407
    0.043779      0.002241     0.086102
   -0.001528     -0.101753     0.050286
   -0.038918      0.007289     0.120815
   -0.101509      0.076290    -0.100372
   -0.017274      0.119070    -0.005288
    0.065473      0.050652     0.066515
    0.054562      0.141778    -0.153908
   -0.007296      0.035776     0.072293
   -0.031898     -0.030720     0.032790
   -0.105518      0.014796    -0.059196
   -0.082843     -0.094173     0.020220
    0.074689     -0.049355     0.056125
    0.179814     -0.063303    -0.191074
    0.152347     -0.059348    -0.054435
   -0.042701      0.012930     0.029097
   -0.129999      0.063346     0.136559
   -0.053382     -0.120109     0.141187
   -0.010610      0.018588    -0.125214
   -0.034243      0.065415    -0.170397
    0.027051      0.010523    -0.074923
    0.020057     -0.010432     0.076762
    0.026672      0.128926    -0.043368
    0.111346      0.041446     0.111639
    0.102706     -0.100393     0.099784
    0.026084     -0.026350     0.033723
   -0.067938     -0.099570    -0.019708
   -0.097428      0.096339    -0.089807
   -0.040319      0.146661    -0.002056
   -0.001073      0.095954     0.080803
    0.014817     -0.014403     0.111952
   -0.073597     -0.070743    -0.067684
   -0.116235     -0.096618    -0.094630
   -0.089308     -0.067623    -0.063491
    0.022127     -0.021539    -0.100952
    0.124751     -0.098526     0.030877
    0.068348      0.010966     0.172799
    0.052981      0.050950     0.092392
    0.076245     -0.016369     0.018115
   -0.029303      0.070080     0.015658
    0.001342     -0.064553    -0.047766
    0.011705      0.028772    -0.000165
   -0.089231      0.176382    -0.015166
   -0.121333      0.104528    -0.092250
   -0.110484      0.012141     0.158615
   -0.007393      0.030452     0.025224
    0.031153      0.022332    -0.003042
    0.056474     -0.137775     0.264925
   -0.045419      0.089677    -0.024942
   -0.000716      0.070734    -0.138005
    0.042649      0.044594    -0.035122
   -0.028468      0.125598     0.020361
   -0.041085     -0.029121     0.044727
   -0.020360     -0.207740    -0.053636
    0.098036     -0.320595    -0.120590
    0.345999     -0.208500    -0.219274
    0.505068     -0.043320    -0.194289
    0.504037     -0.024554     0.014232
    0.414254      0.086401     0.104136
    0.182185      0.196022    -0.023762
    0.084441      0.079304    -0.128411
    0.010213     -0.038040    -0.217560
   -0.132756     -0.296114     0.011995
   -0.231113     -0.407472    -0.121714
   -0.145441     -0.201938    -0.190944
    0.003503     -0.135879     0.188068
    0.128549      0.209949    -0.183445
    0.038045      0.343302    -0.282156
   -0.197052      0.236635     0.002053
   -0.591065      0.406902     0.167020
   -0.669047      0.113554     0.169371
   -0.445786     -0.002494     0.189503
   -0.256327      0.164534     0.062584
    0.117643      0.183368    -0.135881
    0.330346      0.135658     0.149145
    0.222924      0.361398     0.233959
   -0.131850      0.234747     0.349007
   -0.186749     -0.280781     0.246495
   -0.205422     -0.393384    -0.036702
   -0.422653     -0.516467    -0.009733
   -0.344560     -0.350896    -0.057371
    0.016222      0.065667     0.001528
    0.196250      0.131349     0.161194
    0.131708      0.036240     0.108430
    0.160401     -0.080730    -0.124901
    0.113557     -0.179573     0.069140
   -0.183701     -0.084665     0.228818
   -0.177435     -0.060928     0.168547
   -0.121812      0.051299     0.003588
   -0.194152      0.052877    -0.103398
   -0.257534      0.093982    -0.019508
   -0.188465      0.117117    -0.085473
   -0.057925      0.080514    -0.126899
    0.035458      0.053089    -0.151322
    0.259303      0.162379    -0.003269
    0.358620      0.479529     0.083012
    0.354724      0.502535    -0.134146
    0.290323      0.104822    -0.300004
    0.280577     -0.335782    -0.116702
    0.172605     -0.301909    -0.247589
   -0.028662     -0.167396    -0.193929
   -0.079891     -0.173415     0.016100
    0.141968     -0.143890    -0.034513
    0.498959     -0.216009    -0.159645
    0.635122     -0.211518    -0.147741
    0.252550      0.055026     0.096117
   -0.114018      0.033489     0.088540
   -0.373233     -0.079148     0.193309
   -0.326683     -0.305063     0.211534
   -0.063413     -0.197533     0.114049
    0.098922      0.065052     0.122007
    0.178186      0.093480     0.144843
    0.092358     -0.011839     0.159747
    0.055798     -0.105207     0.052509
   -0.123464     -0.045004    -0.087803
   -0.235353      0.018530     0.067252
   -0.219354      0.258554     0.130272
   -0.139903      0.094796     0.161868
   -0.041741     -0.060324    -0.042914
   -0.197224      0.169922    -0.158257
   -0.305742      0.098330     0.107202
   -0.055093     -0.001913     0.008556
    0.154684     -0.134902    -0.122038
    0.229699     -0.233330     0.003648
    0.078873     -0.065658    -0.028017
   -0.025366      0.187207    -0.372069
   -0.209230      0.381963    -0.102305
   -0.349517      0.003861     0.142548
   -0.097192      0.078879     0.047796
    0.233551      0.081866     0.039203
    0.347079     -0.028035     0.022976
    0.260659      0.000095     0.139541
    0.322342     -0.250261     0.059435
    0.280504     -0.073194    -0.126320
   -0.086870     -0.080025    -0.017735
   -0.123585     -0.151490     0.068917
   -0.125437      0.225961    -0.034780
   -0.297716      0.174603     0.004434
   -0.281514     -0.018034    -0.164334
   -0.122874     -0.065613    -0.235478
    0.011784      0.015746    -0.045999
   -0.036076      0.314173    -0.127008
    0.166578      0.320178    -0.089991
    0.160114      0.131381     0.052366
    0.103537      0.052815    -0.140281
    0.100184      0.010500    -0.106600
   -0.020800     -0.119924    -0.189806
   -0.220682      0.031312    -0.079542
   -0.024346      0.007275     0.042858
    0.062479      0.163673    -0.003021
   -0.154270     -0.104870     0.155311
    0.006634     -0.056173     0.200878
    0.175966      0.033101     0.273942
    0.301545     -0.145870     0.013405
    0.180567     -0.165167     0.099409
   -0.020718     -0.428172    -0.053585
   -0.264799     -0.470859    -0.074463
   -0.179460     -0.513606     0.147893
   -0.136887     -0.030538     0.025019
   -0.201980     -0.153222     0.226333
   -0.082651     -0.001768     0.133465
   -0.150122      0.248998     0.000859
    0.004366     -0.026829     0.118603
    0.012308      0.100896     0.128639
   -0.209388      0.107950     0.017298
   -0.203952      0.145967    -0.012479
   -0.032452      0.151368     0.065655
    0.056472      0.388920    -0.057727
    0.203590      0.477047    -0.156552
    0.325731      0.215936     0.108363
    0.233073      0.176643     0.159837
    0.183223      0.126209    -0.099458
    0.103931      0.006643    -0.102923
    0.137879     -0.271599    -0.015168
    0.041771     -0.098685    -0.214532
   -0.018544     -0.040650    -0.183795
   -0.026835      0.066154     0.018821
   -0.208783      0.289435    -0.133345
   -0.124896     -0.354475    -0.266123
    0.056214     -0.281765    -0.051300
    0.137003     -0.036718    -0.059430
    0.138554     -0.096135    -0.102176
    0.071901     -0.197405    -0.017128
    0.152168     -0.160848    -0.060050
    0.085956     -0.194814    -0.010023
   -0.124045     -0.195196    -0.120169
   -0.329773      0.070430     0.252275
   -0.290365     -0.007188     0.294559
   -0.126354      0.211526    -0.003596
   -0.082558     -0.171708     0.136434
   -0.044471     -0.027049     0.118594
    0.017440      0.345594     0.111500
    0.160461      0.122884    -0.005985
   -0.004013      0.090127     0.080850
   -0.067460      0.061016     0.221802
    0.043312      0.075092     0.003838
    0.090882     -0.001541    -0.092927
    0.086347      0.178028    -0.000923
    0.031507      0.131345    -0.072462
   -0.001897     -0.263422    -0.113722
   -0.051268     -0.274744    -0.080867
   -0.125508     -0.103839    -0.040457
   -0.033596     -0.112143    -0.020350
    0.114282     -0.028009    -0.019590
    0.077666      0.335970    -0.057143
   -0.090662      0.364224     0.090875
   -0.099469     -0.090311     0.137435
   -0.145589     -0.203475     0.067762
   -0.091294     -0.299127    -0.026841
   -0.031015      0.131973    -0.098795
   -0.052263     -0.016072     0.077006
