STRONG GROUND MOTION RECORDS OF TURKIYE
PLACE                   : MUðLA DATCA BELEDIYE KAPALI SPOR SALONU
EARTHQUAKE DATE         : 2017/07/24 06:59:25 (GMT)
EPICENTER COORDINATES   : 36.94630N-27.58850E
EARTHQUAKE DEPTH (km)   : 10.69
EARTHQUAKE MAGNITUDE    : 3.0 ML
STATION ID              : 4812
STATION COORDINATES     : 36.71225N-27.68801E
STATION ALTITUDE (m)    : 25
RECORDER TYPE           : GeoSig gmsplus
RECORDER SERIAL NO      : 101127
RECORD TIME             : 24/07/2017 06:59:23.000000 (GMT)
NUMBER OF DATA          : 6000
SAMPLING INTERVAL (sec) : 0.01
RAW PGA VALUES (gal)    : (N-S) 0.25416 (E-W) 0.205303 (U-D) 0.244804
Copyright EARTHQUAKE DEPARTMENT
DISASTER AND EMERGENCY MANAGEMENT PRESIDENCY
       N-S          E-W          U-D
[...]
   -0.078483      0.007017     0.090697
   -0.005977      0.038202     0.126040
    0.005198      0.041320     0.049117
    0.030925      0.048857    -0.082641
    0.086279     -0.001040    -0.153068
    0.078743     -0.011175    -0.107849
    0.067308     -0.030665     0.050936
   -0.020011     -0.022090     0.051196
   -0.036903      0.030925     0.086279
    0.016112     -0.024688     0.076924
   -0.018191     -0.047817    -0.081601
   -0.016632     -0.017932    -0.041840
   -0.019751      0.006497     0.008056
   -0.062890      0.090177    -0.042620
   -0.039501      0.100313    -0.035603
    0.025208      0.046518    -0.029886
    0.046258      0.018191     0.066269
    0.020530     -0.047817     0.106290
   -0.048337     -0.055094    -0.061331
   -0.079262     -0.036383    -0.103431
   -0.005717     -0.054314    -0.017672
    0.004678     -0.040021     0.037422
   -0.027807     -0.025468     0.010135
    0.014813      0.032745    -0.048857
    0.036643      0.070946    -0.001040
    0.037682      0.042880     0.061331
    0.065229     -0.012734     0.075884
    0.038722     -0.057953     0.004158
    0.007017     -0.036643     0.036383
    0.042880     -0.042880     0.120063
    0.014553     -0.020530    -0.004938
   -0.024948      0.050676    -0.065749
   -0.020270      0.051716    -0.046518
   -0.032745      0.023129    -0.081082
   -0.009615     -0.011175    -0.044179
   -0.025468      0.010135    -0.024688
   -0.053275      0.066529    -0.016372
   -0.041840      0.014293     0.091477
   -0.066529     -0.024948     0.060291
   -0.041840      0.005457    -0.048077
    0.055354     -0.016892     0.018971
    0.077183     -0.035343     0.067828
    0.040021     -0.018971    -0.012214
    0.056133      0.004158    -0.074065
    0.055614      0.011435    -0.023129
    0.013773     -0.002859    -0.020011
   -0.029106      0.001819    -0.047557
   -0.058992     -0.012994    -0.011435
   -0.046258     -0.020790    -0.033524
   -0.021570     -0.010655    -0.002339
    0.007277     -0.035863     0.047557
    0.018451     -0.016112     0.005977
    0.001040      0.026507    -0.006237
    0.002339      0.028586     0.025208
    0.012994      0.040541     0.041061
    0.025208      0.033264     0.025208
    0.037162      0.019751    -0.010915
    0.029886      0.020270    -0.054834
    0.007017      0.008576    -0.039241
   -0.003638      0.014033     0.027027
   -0.019751     -0.002079     0.040021
   -0.049377     -0.050416     0.016892
   -0.028327     -0.090437     0.026248
   -0.038202     -0.087579     0.020270
   -0.070946     -0.005198    -0.016632
   -0.021050      0.051716    -0.001559
    0.000260      0.034824    -0.013514
    0.036383      0.031185    -0.050156
    0.101612      0.012214    -0.014553
    0.083940     -0.022349     0.009356
    0.036383     -0.012994     0.048597
   -0.015852      0.007536     0.050676
   -0.026248      0.030665    -0.044699
   -0.006757      0.047557    -0.069127
   -0.030665      0.044959    -0.037682
   -0.046518      0.017932     0.021830
   -0.008836     -0.034564     0.057693
    0.026507     -0.056913     0.027027
    0.013773     -0.071466     0.020270
   -0.027547     -0.082641     0.028846
   -0.084460     -0.044439     0.083161
   -0.068608      0.033524     0.037942
   -0.001819      0.097714    -0.064449
    0.027807      0.083940    -0.011954
    0.034304      0.059772    -0.009356
    0.019491      0.059252    -0.042360
    0.048337      0.046258    -0.074065
    0.053535      0.036383    -0.153847
    0.025468     -0.037942    -0.063150
    0.055354     -0.115126     0.057433
    0.030406     -0.055874     0.082641
    0.002859     -0.007536     0.086539
   -0.009356     -0.042100     0.022090
   -0.065749     -0.044699     0.017412
   -0.055094     -0.050156     0.057953
   -0.032745     -0.064709     0.001559
   -0.017932     -0.014033    -0.050676
    0.030925      0.033784     0.014553
    0.033264      0.037162     0.007277
    0.021050      0.060811    -0.075624
    0.022869      0.066529    -0.086539
   -0.001040      0.070427    -0.117205
   -0.014813      0.082641    -0.003119
   -0.009096      0.021570     0.151248
   -0.030146     -0.043399     0.109928
   -0.020270     -0.051196     0.019491
    0.042100     -0.048337    -0.025728
    0.047298     -0.063670     0.014293
    0.007796     -0.061071     0.027287
   -0.020270     -0.031445    -0.042620
   -0.030665     -0.000260    -0.036643
   -0.011954      0.021570     0.023909
    0.000260      0.051716     0.008576
   -0.015073      0.080042    -0.004938
   -0.070427      0.048337    -0.029106
   -0.078743      0.028327    -0.064969
    0.003638      0.000260    -0.026767
    0.048337     -0.024169     0.017672
    0.037682     -0.013514     0.047557
    0.009615     -0.053795     0.006237
    0.006237     -0.054834    -0.008576
    0.024948     -0.029626    -0.010135
    0.000780      0.020530    -0.053275
   -0.020011      0.058992     0.036123
   -0.024428      0.004938     0.054574
   -0.018971      0.013773    -0.033004
    0.030925      0.013254     0.011954
    0.063670     -0.014293     0.066009
    0.046778      0.026507     0.046778
    0.034044      0.022869    -0.011954
    0.047557      0.017152    -0.116165
    0.053275      0.017672    -0.088878
    0.023649     -0.077183     0.032225
   -0.029626     -0.116945     0.048337
   -0.072766     -0.033524     0.041580
   -0.057433      0.000520     0.033004
   -0.028586     -0.013254     0.004418
   -0.039761     -0.021830    -0.036903
   -0.040281      0.005977    -0.030925
   -0.030406      0.066788     0.074585
   -0.027287      0.050156     0.069387
   -0.015852      0.039241    -0.025468
    0.029366      0.055094    -0.010135
    0.073285      0.014553     0.004418
    0.041840     -0.015073    -0.080042
    0.013254     -0.028067    -0.119543
    0.039501     -0.036383    -0.065229
    0.048337     -0.009615     0.004678
    0.017152      0.013254     0.076144
   -0.014813     -0.000780     0.090437
   -0.025728     -0.008836     0.045738
   -0.050936      0.024169     0.016112
   -0.071726      0.036123     0.028327
   -0.044699      0.024948     0.025468
    0.013773      0.039501    -0.050156
    0.086279      0.010655    -0.054314
    0.110448     -0.029106    -0.029886
    0.048337     -0.012474    -0.074325
   -0.004678     -0.031185    -0.031445
   -0.033784     -0.080822     0.045998
   -0.081342     -0.067308     0.038982
   -0.070427     -0.023129     0.017412
   -0.056913      0.020790    -0.003638
   -0.057953      0.052495    -0.010395
   -0.002859      0.031185     0.004158
    0.007277      0.036383    -0.016892
    0.005977      0.054314     0.037942
    0.031445      0.014553     0.089138
    0.032745      0.000260     0.029106
    0.042100      0.011954     0.028846
    0.045738     -0.011694     0.050936
    0.058212     -0.045478     0.008056
    0.041061     -0.051975    -0.080822
   -0.003898     -0.046518    -0.097974
   -0.026248     -0.008836    -0.070167
   -0.056393      0.042100    -0.115905
   -0.071206      0.036123    -0.082641
   -0.050936      0.035863     0.016632
    0.018711      0.045998     0.064190
    0.064190      0.000260     0.056133
    0.038982     -0.028846     0.020270
    0.014293     -0.009615     0.031705
   -0.008836      0.000260     0.062111
   -0.025468      0.010135     0.078743
   -0.041320      0.025208     0.071726
   -0.067308      0.023649     0.000520
   -0.070167     -0.010915    -0.073285
   -0.036123     -0.056653    -0.073025
    0.014293     -0.058992    -0.077183
    0.066009     -0.024688    -0.107589
    0.088098     -0.004938    -0.040021
    0.037682     -0.007277     0.028327
    0.002339     -0.009615     0.043140
    0.027027     -0.019491     0.094335
    0.011694     -0.016112     0.085240
   -0.014813     -0.004158     0.034304
    0.007796      0.014293     0.047557
    0.000520      0.047557     0.042100
   -0.044439      0.056393    -0.070946
   -0.065229      0.048857    -0.090177
   -0.030925     -0.004938     0.011175
    0.027807     -0.059512     0.036643
    0.083940     -0.070427     0.059252
    0.116165     -0.067308     0.047298
    0.045998     -0.023649    -0.034564
   -0.016112      0.005457    -0.105510
   -0.018451      0.010915    -0.093816
   -0.039761      0.009615     0.004158
    0.003378      0.018191     0.016112
    0.068088      0.029886     0.018971
    0.069647     -0.005717     0.105770
    0.017672     -0.011694     0.100313
   -0.042620      0.004158     0.039241
   -0.042360     -0.010395    -0.004678
   -0.044699     -0.025208    -0.050936
   -0.072766     -0.009875    -0.012474
   -0.086019      0.044699     0.023389
   -0.049637      0.060291    -0.001299
    0.014293      0.043919    -0.039761
    0.021830      0.042100    -0.073025
   -0.015852      0.019231    -0.041580
   -0.055354     -0.014293     0.000520
   -0.057433     -0.029626    -0.008576
   -0.061071     -0.035083    -0.062111
   -0.061071     -0.040281    -0.087838
    0.028327     -0.007277    -0.016112
    0.144751      0.034824     0.074325
    0.206342      0.064190     0.090177
    0.192309      0.060291     0.048077
    0.145011     -0.013514     0.015852
    0.064449     -0.068348     0.019751
   -0.083680     -0.103431     0.007536
   -0.193089     -0.102132     0.007796
   -0.218297     -0.024169     0.032745
   -0.159305      0.067048    -0.010655
   -0.044959      0.100832    -0.017152
    0.011435      0.038722     0.051716
    0.035343     -0.008316     0.034304
    0.075884      0.002079    -0.011175
    0.094595      0.047038    -0.018711
    0.069647      0.126040    -0.080822
    0.003898      0.114866    -0.100832
   -0.057173      0.011435    -0.035863
   -0.097454     -0.064969    -0.042620
   -0.086019     -0.067048    -0.054314
   -0.029626     -0.068867    -0.016112
    0.013773     -0.107589     0.015073
    0.067828     -0.087838     0.064449
    0.107849     -0.017152     0.034044
    0.120323      0.036643    -0.004158
    0.088618      0.027547     0.051456
   -0.008576      0.019751     0.037422
   -0.076144      0.046518    -0.016632
   -0.096934      0.030146     0.007017
   -0.078483      0.004938     0.100832
   -0.023909     -0.034044     0.108109
    0.013254     -0.027807    -0.038462
    0.034304      0.019751    -0.073805
    0.063930     -0.027287     0.008316
    0.098234     -0.062111     0.035083
    0.084200     -0.023129     0.037162
    0.010655      0.051716     0.007017
   -0.033784      0.103691    -0.031185
   -0.046518      0.041840    -0.076664
   -0.097454     -0.021050    -0.137995
   -0.121363     -0.047817    -0.111487
   -0.061591     -0.063670    -0.049896
   -0.012734     -0.014813    -0.006497
   -0.007277      0.018971     0.038982
   -0.003119      0.045219     0.049896
    0.002339      0.053275     0.068867
    0.003898     -0.011954     0.081082
   -0.010915     -0.044959     0.076664
   -0.016112     -0.045478     0.046778
   -0.032225     -0.021830    -0.013514
   -0.028846      0.009356    -0.016372
    0.070946      0.023909    -0.029366
    0.162683      0.061591    -0.061331
    0.209201      0.042880    -0.094855
    0.170739     -0.013254    -0.104990
    0.035863     -0.050156    -0.006237
   -0.025208     -0.038462     0.052235
   -0.004418      0.034044     0.050156
    0.021310      0.062890     0.062630
    0.021830      0.049896     0.084200
   -0.019491     -0.021310     0.108369
   -0.100572     -0.121363     0.015333
   -0.180095     -0.146051    -0.101092
   -0.156186     -0.122662    -0.095895
   -0.091477     -0.057173    -0.061851
   -0.096674      0.062111    -0.073025
   -0.109408      0.191529    -0.048857
   -0.079003      0.205303     0.007277
   -0.036903      0.116945     0.010395
    0.000000      0.017412     0.068088
    0.051196     -0.070427     0.122402
    0.103691     -0.078223     0.110967
    0.159305     -0.095635     0.103431
    0.226093     -0.110448     0.016372
    0.190490     -0.001819    -0.100572
    0.061851      0.128639    -0.141893
   -0.025988      0.148910    -0.084460
   -0.031445      0.077963     0.001040
   -0.003898      0.024948     0.073805
   -0.025728     -0.025988     0.089138
   -0.079782     -0.077963    -0.021570
   -0.122402     -0.123182    -0.093816
   -0.099533     -0.183733    -0.033264
   -0.031965     -0.134876     0.078483
   -0.039761      0.007277     0.070687
   -0.087579      0.109928    -0.033004
   -0.086019      0.170479    -0.018711
   -0.023909      0.176716    -0.000780
    0.048077      0.130458    -0.030146
    0.065489      0.054574    -0.005717
    0.052235     -0.059772     0.011694
    0.053275     -0.171259     0.017412
    0.005717     -0.177236    -0.024169
   -0.076924     -0.048077    -0.128379
   -0.042880      0.038462    -0.151768
    0.055874      0.004418    -0.027287
    0.119803     -0.027027     0.115126
    0.191010     -0.025208     0.203744
    0.213619     -0.048857     0.244804
    0.131498     -0.062630     0.136955
   -0.003898      0.045998    -0.008316
   -0.168400      0.158265    -0.066788
   -0.254160      0.126040    -0.131758
   -0.156966      0.003119    -0.165802
    0.015852     -0.077443    -0.094075
    0.128899     -0.060032     0.005717
    0.117724     -0.047038     0.053275
    0.033784     -0.054314     0.004678
   -0.056393     -0.034824    -0.082121
   -0.137735      0.012994    -0.020530
   -0.138514      0.062111     0.106550
   -0.101612      0.084980     0.147610
   -0.061851      0.100313     0.077963
    0.030925      0.089138    -0.023389
    0.122402      0.016112    -0.031705
    0.137215     -0.044439    -0.041061
    0.045478     -0.063410    -0.063150
   -0.059512     -0.099533    -0.051456
   -0.067568     -0.105770    -0.011954
   -0.008316     -0.073545    -0.020011
    0.055094     -0.036383    -0.059252
    0.071206     -0.021050     0.009615
    0.032745     -0.017152     0.060291
   -0.002599      0.008836     0.040541
   -0.012214      0.041840     0.040281
   -0.033264      0.099013     0.041320
   -0.011694      0.115905     0.009615
    0.051196      0.068608    -0.005198
    0.038982      0.004158    -0.001559
   -0.001559     -0.033524    -0.065749
   -0.012474      0.007536    -0.099793
   -0.020790      0.051456    -0.063670
   -0.008576      0.078483    -0.019231
    0.023129      0.092256     0.042880
    0.031445      0.050936     0.068867
   -0.002079      0.007536     0.090697
   -0.056653     -0.045738     0.117724
   -0.080822     -0.123442     0.081342
   -0.018451     -0.162163     0.039501
    0.059512     -0.142932    -0.016632
    0.060551     -0.076404    -0.081082
    0.032485     -0.020270    -0.082901
   -0.002859     -0.007017    -0.080562
   -0.069127      0.019751    -0.072506
   -0.114866      0.063670    -0.008316
   -0.121103      0.096154     0.063930
   -0.095375      0.109928     0.044179
   -0.013773      0.064709    -0.028067
    0.091996      0.001299    -0.028327
    0.175677     -0.004158    -0.018971
    0.175417      0.005457    -0.047817
    0.093556      0.032485    -0.089398
    0.027027      0.051456    -0.085500
    0.000000     -0.028327     0.034824
   -0.020530     -0.101092     0.166061
   -0.033264     -0.071466     0.195428
   -0.036643     -0.036383     0.147870
   -0.090957     -0.051196     0.060811
   -0.146831     -0.052755    -0.072246
   -0.108629     -0.017932    -0.163723
   -0.031445      0.009875    -0.116165
    0.045998      0.035603    -0.061591
    0.113826      0.065489    -0.060291
    0.100313      0.051456    -0.037162
    0.003898     -0.024169    -0.010655
   -0.031185     -0.096674     0.054054
   -0.041580     -0.082901     0.094855
   -0.090957      0.018971     0.040021
   -0.046778      0.104471     0.012734
    0.024169      0.094855     0.028327
    0.088098      0.044179     0.020790
    0.125261      0.019231    -0.011954
    0.053795      0.017932     0.008576
   -0.000780      0.026248     0.038982
   -0.032225      0.031965    -0.020270
   -0.074325      0.019491    -0.062630
   -0.090437     -0.011435    -0.049896
   -0.047817     -0.067048    -0.002859
    0.055874     -0.113826     0.041061
    0.095115     -0.085759     0.040281
    0.071726     -0.035083     0.024169
    0.042620      0.013514     0.003638
    0.003378      0.049377     0.019491
   -0.008316      0.023909     0.028067
    0.010655      0.007277    -0.011435
    0.022869      0.028586    -0.048597
   -0.005717      0.046258    -0.065229
   -0.058732      0.001299    -0.055354
   -0.100832     -0.063410    -0.031185
   -0.093556     -0.029626     0.002079
   -0.035863      0.029886    -0.015852
    0.004678      0.071466    -0.053275
    0.026248      0.066009     0.038202
    0.063410     -0.041840     0.131498
    0.068348     -0.084200     0.095375
   -0.001299     -0.027027     0.077443
   -0.057173      0.019491     0.071726
   -0.049896      0.047817    -0.014553
   -0.029626      0.009356    -0.096414
   -0.011694     -0.068088    -0.100572
    0.000520     -0.111487    -0.079522
    0.028327     -0.095895    -0.028067
    0.034304     -0.017412     0.067308
    0.023649      0.075624     0.081082
    0.040801      0.131758     0.018191
    0.027547      0.136176    -0.044179
    0.017672      0.116165    -0.040021
    0.000260      0.058732     0.011954
   -0.031185      0.007277    -0.017412
    0.012734     -0.015593    -0.018711
    0.047038     -0.042880     0.015852
   -0.011954     -0.003898    -0.018451
   -0.090697      0.036903    -0.012474
   -0.049117      0.003638     0.015333
    0.064709     -0.042880    -0.000780
    0.050156     -0.081861    -0.001559
   -0.040281     -0.097974     0.044699
   -0.085500     -0.118764     0.078483
   -0.076404     -0.095635     0.036383
   -0.016892      0.009875    -0.016632
    0.039241      0.082121     0.008056
    0.042620      0.078223     0.047557
    0.017932      0.039761     0.007017
    0.029106      0.010655    -0.078223
    0.045219     -0.003378    -0.117724
    0.037162     -0.013254    -0.055094
    0.047817     -0.019491     0.040801
    0.041061     -0.005198     0.061851
    0.003638      0.048597     0.040541
   -0.035863      0.067048     0.023129
   -0.033524      0.001559     0.028586
    0.003378     -0.088098     0.041840
    0.005198     -0.097714    -0.027547
    0.027287     -0.057433    -0.092256
    0.062370     -0.053795    -0.068608
    0.045219     -0.012994    -0.060551
   -0.002599      0.066788    -0.027027
   -0.064190      0.098493     0.030925
   -0.114346      0.078223    -0.002339
   -0.140593      0.059252    -0.052755
   -0.089917      0.042100     0.003898
    0.000000     -0.012214     0.112007
    0.040801     -0.053015     0.101092
